{"type": "FeatureCollection", "features": [{"type": "Feature", "geometry": {"type": "Point", "coordinates": [-3.1608695714655877, 3.7434467711106594]}, "properties": {"id": 0, "name": "OR51Q1, OR52E5, OR51V1", "size": 53, "labelId": "0", "symbolzoom": 6}}, {"type": "Feature", "geometry": {"type": "Point", "coordinates": [17.333139918078892, 9.92885225822647]}, "properties": {"id": 1, "name": "KRTAP10-3, KRTAP10-12, KRTAP10-6", "size": 12, "labelId": "1", "symbolzoom": 9}}, {"type": "Feature", "geometry": {"type": "Point", "coordinates": [12.061799083580354, 14.326152134738685]}, "properties": {"id": 2, "name": "TRBV5-4, TRBV2, TRBV30", "size": 45, "labelId": "2", "symbolzoom": 6}}, {"type": "Feature", "geometry": {"type": "Point", "coordinates": [-3.711982669017936, 0.86018952665587]}, "properties": {"id": 3, "name": "OR7C1, OR7D2, OR1E1", "size": 23, "labelId": "3", "symbolzoom": 8}}, {"type": "Feature", "geometry": {"type": "Point", "coordinates": [3.5510078031492824, -9.229123969116186]}, "properties": {"id": 4, "name": "KRTAP5-8, KRTAP5-7, KRTAP5-2", "size": 12, "labelId": "4", "symbolzoom": 9}}, {"type": "Feature", "geometry": {"type": "Point", "coordinates": [20.02702988870449, 5.0860456468786195]}, "properties": {"id": 5, "name": "ZNF117, ZNF430, ZNF525", "size": 54, "labelId": "5", "symbolzoom": 6}}, {"type": "Feature", "geometry": {"type": "Point", "coordinates": [18.472193588697394, 6.4802289682435426]}, "properties": {"id": 6, "name": "PCDHA6, PCDHA13, PCDHA10", "size": 18, "labelId": "6", "symbolzoom": 8}}, {"type": "Feature", "geometry": {"type": "Point", "coordinates": [18.321557610877854, 6.3402997158239085]}, "properties": {"id": 7, "name": "PCDHB11, PCDHB13, PCDHB2", "size": 22, "labelId": "7", "symbolzoom": 8}}, {"type": "Feature", "geometry": {"type": "Point", "coordinates": [3.3633333921299835, -9.62726308983996]}, "properties": {"id": 8, "name": "KRTAP21-3, KRTAP8-1, KRTAP22-1", "size": 22, "labelId": "8", "symbolzoom": 8}}, {"type": "Feature", "geometry": {"type": "Point", "coordinates": [3.8182265849513555, -9.571949898604077]}, "properties": {"id": 9, "name": "KRTAP29-1, KRTAP12-2, KRTAP2-3", "size": 26, "labelId": "9", "symbolzoom": 7}}, {"type": "Feature", "geometry": {"type": "Point", "coordinates": [4.031193439109737, -9.751798312931871]}, "properties": {"id": 10, "name": "KRTAP4-2, KRTAP4-6, KRTAP9-8", "size": 19, "labelId": "10", "symbolzoom": 8}}, {"type": "Feature", "geometry": {"type": "Point", "coordinates": [12.641349751788939, -11.630797098435714]}, "properties": {"id": 11, "name": "PCDHGA1, PCDHGB1, PCDHGA5", "size": 19, "labelId": "11", "symbolzoom": 8}}, {"type": "Feature", "geometry": {"type": "Point", "coordinates": [9.520716037510017, -11.590211754933026]}, "properties": {"id": 12, "name": "NPIPB8, NPIPB9, NPIPB7", "size": 18, "labelId": "12", "symbolzoom": 8}}, {"type": "Feature", "geometry": {"type": "Point", "coordinates": [9.955141136393749, -9.56886323001423]}, "properties": {"id": 13, "name": "S100A7, S100A3, S100A7A", "size": 19, "labelId": "13", "symbolzoom": 8}}, {"type": "Feature", "geometry": {"type": "Point", "coordinates": [6.837971669208655, -12.429879666153035]}, "properties": {"id": 14, "name": "MT4, MT1G, MT1HL1", "size": 12, "labelId": "14", "symbolzoom": 9}}, {"type": "Feature", "geometry": {"type": "Point", "coordinates": [4.239606461228094, -12.656042351663121]}, "properties": {"id": 15, "name": "IGHD1-1, TRBJ2-7, TRDJ1", "size": 23, "labelId": "15", "symbolzoom": 8}}, {"type": "Feature", "geometry": {"type": "Point", "coordinates": [20.30839612133136, -3.2329754508165616]}, "properties": {"id": 16, "name": "UGT1A9, UGT1A6, UGT1A8", "size": 22, "labelId": "16", "symbolzoom": 8}}, {"type": "Feature", "geometry": {"type": "Point", "coordinates": [20.662682355990178, 2.485541951436719]}, "properties": {"id": 17, "name": "KRT81, KRT74, KRT8", "size": 67, "labelId": "17", "symbolzoom": 5}}, {"type": "Feature", "geometry": {"type": "Point", "coordinates": [-0.9991003209289914, -2.504273344894237]}, "properties": {"id": 18, "name": "TAS2R13, TAS2R46, TAS2R50", "size": 36, "labelId": "18", "symbolzoom": 7}}, {"type": "Feature", "geometry": {"type": "Point", "coordinates": [0.34546210641519515, -2.4017025588546987]}, "properties": {"id": 19, "name": "S1PR1, PTGDR, S1PR3", "size": 260, "labelId": "19", "symbolzoom": 2}}, {"type": "Feature", "geometry": {"type": "Point", "coordinates": [-1.51770493206722, -6.393491228988743]}, "properties": {"id": 20, "name": "CRABP2, FABP1, RBP1", "size": 16, "labelId": "20", "symbolzoom": 8}}, {"type": "Feature", "geometry": {"type": "Point", "coordinates": [2.9819389112909094, -5.064043275814875]}, "properties": {"id": 21, "name": "ZNF763, ZNF844, ZNF791", "size": 41, "labelId": "21", "symbolzoom": 6}}, {"type": "Feature", "geometry": {"type": "Point", "coordinates": [19.122649863804035, -0.3885333885685185]}, "properties": {"id": 22, "name": "TBC1D3K, TBC1D3C, TBC1D3H", "size": 13, "labelId": "22", "symbolzoom": 9}}, {"type": "Feature", "geometry": {"type": "Point", "coordinates": [8.809626693548626, 14.070166426272472]}, "properties": {"id": 23, "name": "IGHV3-72, IGHV3-73, IGHV3-64", "size": 22, "labelId": "23", "symbolzoom": 8}}, {"type": "Feature", "geometry": {"type": "Point", "coordinates": [9.165495893160776, 13.984570111017685]}, "properties": {"id": 24, "name": "IGHV4-59, IGHV4-4, IGHV4-61", "size": 26, "labelId": "24", "symbolzoom": 7}}, {"type": "Feature", "geometry": {"type": "Point", "coordinates": [9.844128961178772, 13.769416365300456]}, "properties": {"id": 25, "name": "IGKV1-6, IGKV1-33, IGKV1D-17", "size": 27, "labelId": "25", "symbolzoom": 7}}, {"type": "Feature", "geometry": {"type": "Point", "coordinates": [0.8737729705772244, -7.095392091586847]}, "properties": {"id": 26, "name": "LCE2D, CRCT1, LCE1D", "size": 18, "labelId": "26", "symbolzoom": 8}}, {"type": "Feature", "geometry": {"type": "Point", "coordinates": [0.9845666742169605, -6.967791634687042]}, "properties": {"id": 27, "name": "SPRR1A, SPRR1B, SPRR2B", "size": 15, "labelId": "27", "symbolzoom": 8}}, {"type": "Feature", "geometry": {"type": "Point", "coordinates": [17.755268823837397, 2.542389600381779]}, "properties": {"id": 28, "name": "RPS26, RPL36AL, RPL23A", "size": 79, "labelId": "28", "symbolzoom": 5}}, {"type": "Feature", "geometry": {"type": "Point", "coordinates": [11.955365464136344, 14.532743051645681]}, "properties": {"id": 29, "name": "TRAV39, TRAV12-2, TRAV9-2", "size": 48, "labelId": "29", "symbolzoom": 6}}, {"type": "Feature", "geometry": {"type": "Point", "coordinates": [11.773778120863135, 14.521118480688859]}, "properties": {"id": 30, "name": "TRAV18, TRGV3, TRGV4", "size": 10, "labelId": "30", "symbolzoom": 9}}, {"type": "Feature", "geometry": {"type": "Point", "coordinates": [3.135814892035258, -3.7495192506067805]}, "properties": {"id": 31, "name": "MZF1, ZSCAN20, ZSCAN10", "size": 93, "labelId": "31", "symbolzoom": 4}}, {"type": "Feature", "geometry": {"type": "Point", "coordinates": [7.059915278338487, -4.380466742053028]}, "properties": {"id": 32, "name": "OLR1, CLEC6A, CLEC4D", "size": 37, "labelId": "32", "symbolzoom": 7}}, {"type": "Feature", "geometry": {"type": "Point", "coordinates": [6.3942818270265125, -5.750127429846978]}, "properties": {"id": 33, "name": "CRYGC, CRYBB1, CRYGA", "size": 11, "labelId": "33", "symbolzoom": 9}}, {"type": "Feature", "geometry": {"type": "Point", "coordinates": [9.163815574444502, 10.521228528805437]}, "properties": {"id": 34, "name": "IGHG3, IGHG4, IGHA1", "size": 17, "labelId": "34", "symbolzoom": 8}}, {"type": "Feature", "geometry": {"type": "Point", "coordinates": [3.447769742159256, -4.803088665835425]}, "properties": {"id": 35, "name": "ZNF415, ZNF610, ZNF195", "size": 33, "labelId": "35", "symbolzoom": 7}}, {"type": "Feature", "geometry": {"type": "Point", "coordinates": [8.354229303538816, 9.625742679749418]}, "properties": {"id": 36, "name": "MR1, ULBP3, PROCR", "size": 18, "labelId": "36", "symbolzoom": 8}}, {"type": "Feature", "geometry": {"type": "Point", "coordinates": [8.25262889592786, 9.735906796439867]}, "properties": {"id": 37, "name": "HLA-DQB1, HLA-DQA1, HLA-DPA1", "size": 19, "labelId": "37", "symbolzoom": 8}}, {"type": "Feature", "geometry": {"type": "Point", "coordinates": [7.631495618669591, -6.317235364792685]}, "properties": {"id": 38, "name": "GNAI3, GNAI2, GNAZ", "size": 16, "labelId": "38", "symbolzoom": 8}}, {"type": "Feature", "geometry": {"type": "Point", "coordinates": [7.812006673975816, -6.253707601379162]}, "properties": {"id": 39, "name": "SEPTIN14, SEPTIN11, SEPTIN3", "size": 12, "labelId": "39", "symbolzoom": 9}}, {"type": "Feature", "geometry": {"type": "Point", "coordinates": [13.526627925897959, 6.864118331581555]}, "properties": {"id": 40, "name": "RYK, TGFBR1, TGFBR2", "size": 13, "labelId": "40", "symbolzoom": 9}}, {"type": "Feature", "geometry": {"type": "Point", "coordinates": [13.704979556232516, 6.682176600814923]}, "properties": {"id": 41, "name": "FLT4, RET, EPHB6", "size": 51, "labelId": "41", "symbolzoom": 6}}, {"type": "Feature", "geometry": {"type": "Point", "coordinates": [16.29177572677015, 5.170483714546097]}, "properties": {"id": 42, "name": "PRAMEF14, PRAMEF12, PRAMEF7", "size": 24, "labelId": "42", "symbolzoom": 8}}, {"type": "Feature", "geometry": {"type": "Point", "coordinates": [9.73195479149001, 13.8870545801617]}, "properties": {"id": 43, "name": "IGLV5-37, IGKV2D-29, IGKV2D-28", "size": 21, "labelId": "43", "symbolzoom": 8}}, {"type": "Feature", "geometry": {"type": "Point", "coordinates": [9.644844515311892, 13.987366086101463]}, "properties": {"id": 44, "name": "IGLV3-10, IGLV10-54, IGLV1-36", "size": 35, "labelId": "44", "symbolzoom": 7}}, {"type": "Feature", "geometry": {"type": "Point", "coordinates": [15.97873884991834, -5.700423995889459]}, "properties": {"id": 45, "name": "WNT9B, WNT10A, WNT10B", "size": 19, "labelId": "45", "symbolzoom": 8}}, {"type": "Feature", "geometry": {"type": "Point", "coordinates": [16.31591518249911, -4.0596051603580765]}, "properties": {"id": 46, "name": "CXCL13, CCL24, CXCL11", "size": 44, "labelId": "46", "symbolzoom": 6}}, {"type": "Feature", "geometry": {"type": "Point", "coordinates": [11.065358563856504, -7.4254867403589495]}, "properties": {"id": 47, "name": "ANXA1, ANXA10, ANXA2", "size": 11, "labelId": "47", "symbolzoom": 9}}, {"type": "Feature", "geometry": {"type": "Point", "coordinates": [10.868239027045146, -5.883416891198615]}, "properties": {"id": 48, "name": "TMEM135, SFXN4, SFXN3", "size": 61, "labelId": "48", "symbolzoom": 5}}, {"type": "Feature", "geometry": {"type": "Point", "coordinates": [14.464550652021185, -5.096586196079845]}, "properties": {"id": 49, "name": "SPATA31D4, SPATA31A6, SPATA31A5", "size": 10, "labelId": "49", "symbolzoom": 9}}, {"type": "Feature", "geometry": {"type": "Point", "coordinates": [13.137900562009772, -4.756206906808156]}, "properties": {"id": 50, "name": "KBTBD8, KBTBD2, IPP", "size": 47, "labelId": "50", "symbolzoom": 6}}, {"type": "Feature", "geometry": {"type": "Point", "coordinates": [12.28333396846974, -4.310446491889914]}, "properties": {"id": 51, "name": "CDH15, CDH22, DSC1", "size": 36, "labelId": "51", "symbolzoom": 7}}, {"type": "Feature", "geometry": {"type": "Point", "coordinates": [3.7470760879171277, 1.7627386815778134]}, "properties": {"id": 52, "name": "TRIM17, TRIML2, TRIM43B", "size": 23, "labelId": "52", "symbolzoom": 8}}, {"type": "Feature", "geometry": {"type": "Point", "coordinates": [4.195225503682636, 1.7002335441398961]}, "properties": {"id": 53, "name": "TRIM72, TRIM40, TRIM29", "size": 65, "labelId": "53", "symbolzoom": 5}}, {"type": "Feature", "geometry": {"type": "Point", "coordinates": [6.002877332092455, -2.299669082759155]}, "properties": {"id": 54, "name": "NLRP11, NLRP8, NOD1", "size": 20, "labelId": "54", "symbolzoom": 8}}, {"type": "Feature", "geometry": {"type": "Point", "coordinates": [6.3542004001805275, -2.2806204953154756]}, "properties": {"id": 55, "name": "AQP9, AQP7, AQP6", "size": 16, "labelId": "55", "symbolzoom": 8}}, {"type": "Feature", "geometry": {"type": "Point", "coordinates": [17.832178746560352, -4.844401267706656]}, "properties": {"id": 56, "name": "CHRND, CHRNB2, CHRNB1", "size": 24, "labelId": "56", "symbolzoom": 8}}, {"type": "Feature", "geometry": {"type": "Point", "coordinates": [17.97163611874177, -4.756273967518805]}, "properties": {"id": 57, "name": "GABRA1, GABRA4, GABRA2", "size": 18, "labelId": "57", "symbolzoom": 8}}, {"type": "Feature", "geometry": {"type": "Point", "coordinates": [4.919623834496079, -0.9381759968338266]}, "properties": {"id": 58, "name": "HBM, HBD, HBB", "size": 11, "labelId": "58", "symbolzoom": 9}}, {"type": "Feature", "geometry": {"type": "Point", "coordinates": [5.583085063575114, -0.199179669610272]}, "properties": {"id": 59, "name": "CAPNS2, PDCD6, CAPS", "size": 13, "labelId": "59", "symbolzoom": 9}}, {"type": "Feature", "geometry": {"type": "Point", "coordinates": [7.263985885357837, -2.0109580232711335]}, "properties": {"id": 60, "name": "BPIFA1, BPIFB1, BPIFB3", "size": 13, "labelId": "60", "symbolzoom": 9}}, {"type": "Feature", "geometry": {"type": "Point", "coordinates": [14.011381195696192, -3.345496636345459]}, "properties": {"id": 61, "name": "TPSB2, CFD, GZMH", "size": 32, "labelId": "61", "symbolzoom": 7}}, {"type": "Feature", "geometry": {"type": "Point", "coordinates": [14.122270722243298, -3.5530622750749368]}, "properties": {"id": 62, "name": "CELA3B, PRSS3, CELA2A", "size": 12, "labelId": "62", "symbolzoom": 9}}, {"type": "Feature", "geometry": {"type": "Point", "coordinates": [15.532608122483602, 1.7850189293341965]}, "properties": {"id": 63, "name": "AICDA, APOBEC3F, APOBEC3H", "size": 10, "labelId": "63", "symbolzoom": 9}}, {"type": "Feature", "geometry": {"type": "Point", "coordinates": [12.319787547845348, 4.919387508861876]}, "properties": {"id": 64, "name": "PRPF4, EIF3I, SEH1L", "size": 182, "labelId": "64", "symbolzoom": 2}}, {"type": "Feature", "geometry": {"type": "Point", "coordinates": [12.78879850356341, 7.553684754635697]}, "properties": {"id": 65, "name": "PRKAA2, MAPKAPK5, MKNK2", "size": 226, "labelId": "65", "symbolzoom": 2}}, {"type": "Feature", "geometry": {"type": "Point", "coordinates": [13.270738642953077, 7.31513749941455]}, "properties": {"id": 66, "name": "TXK, MATK, FYN", "size": 19, "labelId": "66", "symbolzoom": 8}}, {"type": "Feature", "geometry": {"type": "Point", "coordinates": [15.829654834162895, 0.9672782702161875]}, "properties": {"id": 67, "name": "CYP1A1, CYP27B1, CYP17A1", "size": 58, "labelId": "67", "symbolzoom": 6}}, {"type": "Feature", "geometry": {"type": "Point", "coordinates": [10.773073933097066, 7.150029918138084]}, "properties": {"id": 68, "name": "C4BPA, CR1L, SELP", "size": 16, "labelId": "68", "symbolzoom": 8}}, {"type": "Feature", "geometry": {"type": "Point", "coordinates": [14.139487834253455, -6.484593906126387]}, "properties": {"id": 69, "name": "SERPINB11, SERPINB4, SERPINB8", "size": 14, "labelId": "69", "symbolzoom": 9}}, {"type": "Feature", "geometry": {"type": "Point", "coordinates": [14.04629255766445, -6.291309238470138]}, "properties": {"id": 70, "name": "SERPING1, SERPINE1, SERPINH1", "size": 24, "labelId": "70", "symbolzoom": 8}}, {"type": "Feature", "geometry": {"type": "Point", "coordinates": [15.653468807247384, 0.1598259351530985]}, "properties": {"id": 71, "name": "LGALS16, LGALS1, LGALS14", "size": 16, "labelId": "71", "symbolzoom": 8}}, {"type": "Feature", "geometry": {"type": "Point", "coordinates": [15.467577100505572, -0.30763358885500747]}, "properties": {"id": 72, "name": "FGF19, FGF10, FGF20", "size": 22, "labelId": "72", "symbolzoom": 8}}, {"type": "Feature", "geometry": {"type": "Point", "coordinates": [15.651008908667208, -0.155829607469545]}, "properties": {"id": 73, "name": "IL18, IL36A, IL1A", "size": 11, "labelId": "73", "symbolzoom": 9}}, {"type": "Feature", "geometry": {"type": "Point", "coordinates": [6.785784028414692, -0.1781365267225865]}, "properties": {"id": 74, "name": "ANKRD30A, ANKRD36, ANKRD36C", "size": 25, "labelId": "74", "symbolzoom": 7}}, {"type": "Feature", "geometry": {"type": "Point", "coordinates": [9.655933922178294, 8.021024338588724]}, "properties": {"id": 75, "name": "PSG2, CEACAM8, PSG7", "size": 15, "labelId": "75", "symbolzoom": 8}}, {"type": "Feature", "geometry": {"type": "Point", "coordinates": [3.250347780034716, -4.438688064518001]}, "properties": {"id": 76, "name": "ZNF234, ZNF875, ZNF155", "size": 27, "labelId": "76", "symbolzoom": 7}}, {"type": "Feature", "geometry": {"type": "Point", "coordinates": [2.7209180047061547, -4.573935896895806]}, "properties": {"id": 77, "name": "ZNF184, ZNF135, ZNF302", "size": 184, "labelId": "77", "symbolzoom": 2}}, {"type": "Feature", "geometry": {"type": "Point", "coordinates": [7.608458553478622, -1.9357033368284964]}, "properties": {"id": 78, "name": "PTGDS, LCN1, LCN2", "size": 18, "labelId": "78", "symbolzoom": 8}}, {"type": "Feature", "geometry": {"type": "Point", "coordinates": [7.7436530279033615, -1.8274355247653307]}, "properties": {"id": 79, "name": "CST7, CST1, CST3", "size": 18, "labelId": "79", "symbolzoom": 8}}, {"type": "Feature", "geometry": {"type": "Point", "coordinates": [11.295582834324497, -0.6824850253201036]}, "properties": {"id": 80, "name": "UBE2H, UBE2D3, CDC34", "size": 33, "labelId": "80", "symbolzoom": 7}}, {"type": "Feature", "geometry": {"type": "Point", "coordinates": [7.724039056115728, -6.8667990566877695]}, "properties": {"id": 81, "name": "RASD1, DIRAS1, RASD2", "size": 61, "labelId": "81", "symbolzoom": 5}}, {"type": "Feature", "geometry": {"type": "Point", "coordinates": [11.282531360461025, -1.3178776120379005]}, "properties": {"id": 82, "name": "MYLK, MYOM2, MYBPC3", "size": 14, "labelId": "82", "symbolzoom": 9}}, {"type": "Feature", "geometry": {"type": "Point", "coordinates": [5.798019421137537, 3.8391690560578366]}, "properties": {"id": 83, "name": "RORA, PPARD, NR1D1", "size": 38, "labelId": "83", "symbolzoom": 7}}, {"type": "Feature", "geometry": {"type": "Point", "coordinates": [-3.1409937662579455, 1.140951438979632]}, "properties": {"id": 84, "name": "OR4N2, OR4F15, OR4C11", "size": 59, "labelId": "84", "symbolzoom": 6}}, {"type": "Feature", "geometry": {"type": "Point", "coordinates": [13.97213680539318, 3.0036803529553717]}, "properties": {"id": 85, "name": "PSMB11, PSMA8, PSMA6", "size": 27, "labelId": "85", "symbolzoom": 7}}, {"type": "Feature", "geometry": {"type": "Point", "coordinates": [13.678906336025548, 5.220437453856828]}, "properties": {"id": 86, "name": "ANKEF1, ANKRD54, TNNI3K", "size": 21, "labelId": "86", "symbolzoom": 8}}, {"type": "Feature", "geometry": {"type": "Point", "coordinates": [13.841845919015057, 5.3742618618643245]}, "properties": {"id": 87, "name": "ANKRD29, ANKDD1A, ASB6", "size": 54, "labelId": "87", "symbolzoom": 6}}, {"type": "Feature", "geometry": {"type": "Point", "coordinates": [15.840457970313503, -1.543737862641593]}, "properties": {"id": 88, "name": "SLC22A2, SLC22A4, SLC22A11", "size": 19, "labelId": "88", "symbolzoom": 8}}, {"type": "Feature", "geometry": {"type": "Point", "coordinates": [15.652224877370028, 4.226234713165347]}, "properties": {"id": 89, "name": "LRTM1, RTN4R, LRRC26", "size": 55, "labelId": "89", "symbolzoom": 6}}, {"type": "Feature", "geometry": {"type": "Point", "coordinates": [15.186227831591975, 2.649826346371012]}, "properties": {"id": 90, "name": "ACTBL2, ACTB, ACTG2", "size": 33, "labelId": "90", "symbolzoom": 7}}, {"type": "Feature", "geometry": {"type": "Point", "coordinates": [11.339721509441194, 5.157776009422879]}, "properties": {"id": 91, "name": "USP17L30, USP17L26, USP17L28", "size": 37, "labelId": "91", "symbolzoom": 7}}, {"type": "Feature", "geometry": {"type": "Point", "coordinates": [7.599322340596942, -7.028179918483675]}, "properties": {"id": 92, "name": "HRAS, RAB42, RHOJ", "size": 49, "labelId": "92", "symbolzoom": 6}}, {"type": "Feature", "geometry": {"type": "Point", "coordinates": [7.451703981585243, -7.08391469095562]}, "properties": {"id": 93, "name": "RAC1, CDC42, NRAS", "size": 32, "labelId": "93", "symbolzoom": 7}}, {"type": "Feature", "geometry": {"type": "Point", "coordinates": [5.3941721934595215, -0.3187252331745585]}, "properties": {"id": 94, "name": "CHP1, CIB2, CETN3", "size": 48, "labelId": "94", "symbolzoom": 6}}, {"type": "Feature", "geometry": {"type": "Point", "coordinates": [5.245777528930621, -0.4308892705957025]}, "properties": {"id": 95, "name": "MYL9, MYL6, TNNC2", "size": 20, "labelId": "95", "symbolzoom": 8}}, {"type": "Feature", "geometry": {"type": "Point", "coordinates": [16.454927559583624, -1.3067804740616444]}, "properties": {"id": 96, "name": "COL18A1, COL15A1, COL4A3", "size": 44, "labelId": "96", "symbolzoom": 6}}, {"type": "Feature", "geometry": {"type": "Point", "coordinates": [15.522216916258948, -0.918801557610351]}, "properties": {"id": 97, "name": "CBLN4, CBLN2, CBLN1", "size": 56, "labelId": "97", "symbolzoom": 6}}, {"type": "Feature", "geometry": {"type": "Point", "coordinates": [15.238259850566259, 4.515270430348174]}, "properties": {"id": 98, "name": "AMN1, CFAP410, SKP2", "size": 38, "labelId": "98", "symbolzoom": 7}}, {"type": "Feature", "geometry": {"type": "Point", "coordinates": [14.252212911787979, 2.545885210552064]}, "properties": {"id": 99, "name": "CCT7, TCP1, CCT3", "size": 10, "labelId": "99", "symbolzoom": 9}}, {"type": "Feature", "geometry": {"type": "Point", "coordinates": [14.669952373260767, 2.532427273184567]}, "properties": {"id": 100, "name": "HSPA2, HSPA8, HSPA1B", "size": 15, "labelId": "100", "symbolzoom": 8}}, {"type": "Feature", "geometry": {"type": "Point", "coordinates": [10.631318098865115, -0.754212063157901]}, "properties": {"id": 101, "name": "RETREG2, TMX4, RETREG1", "size": 22, "labelId": "101", "symbolzoom": 8}}, {"type": "Feature", "geometry": {"type": "Point", "coordinates": [15.466175850182163, 4.570142269301435]}, "properties": {"id": 102, "name": "LRRC10, LRRC28, RNH1", "size": 23, "labelId": "102", "symbolzoom": 8}}, {"type": "Feature", "geometry": {"type": "Point", "coordinates": [15.707931734912906, 4.675790130634926]}, "properties": {"id": 103, "name": "CHADL, LRRC32, LRRC15", "size": 45, "labelId": "103", "symbolzoom": 6}}, {"type": "Feature", "geometry": {"type": "Point", "coordinates": [9.25075970890126, -0.8207296038272835]}, "properties": {"id": 104, "name": "SPTBN1, SPTBN2, SPTAN1", "size": 15, "labelId": "104", "symbolzoom": 8}}, {"type": "Feature", "geometry": {"type": "Point", "coordinates": [8.704017582142935, -0.8330363924791735]}, "properties": {"id": 105, "name": "MYO18B, MYH2, MYH3", "size": 20, "labelId": "105", "symbolzoom": 8}}, {"type": "Feature", "geometry": {"type": "Point", "coordinates": [-3.6200857668818225, 1.244447066594746]}, "properties": {"id": 106, "name": "OR2D3, OR5C1, OR11L1", "size": 177, "labelId": "106", "symbolzoom": 2}}, {"type": "Feature", "geometry": {"type": "Point", "coordinates": [-3.476348517899049, 0.9697438741145435]}, "properties": {"id": 107, "name": "OR1L8, OR5AK2, OR5B17", "size": 71, "labelId": "107", "symbolzoom": 5}}, {"type": "Feature", "geometry": {"type": "Point", "coordinates": [11.247865217773631, 6.067936555547441]}, "properties": {"id": 108, "name": "IL13, IL20, IL22", "size": 60, "labelId": "108", "symbolzoom": 5}}, {"type": "Feature", "geometry": {"type": "Point", "coordinates": [10.713040930173209, 4.974028368375718]}, "properties": {"id": 109, "name": "SCGB1C1, SCGB3A1, SCGB1C2", "size": 46, "labelId": "109", "symbolzoom": 6}}, {"type": "Feature", "geometry": {"type": "Point", "coordinates": [8.833519954039655, 0.0946521894014625]}, "properties": {"id": 110, "name": "MYO10, MYO5B, MYO1E", "size": 14, "labelId": "110", "symbolzoom": 9}}, {"type": "Feature", "geometry": {"type": "Point", "coordinates": [11.407401307858732, -3.4738125957143464]}, "properties": {"id": 111, "name": "ATP12A, ATP2C2, ATP2C1", "size": 34, "labelId": "111", "symbolzoom": 7}}, {"type": "Feature", "geometry": {"type": "Point", "coordinates": [8.270770843933585, -2.8361629412384577]}, "properties": {"id": 112, "name": "CD82, TSPAN4, CD151", "size": 28, "labelId": "112", "symbolzoom": 7}}, {"type": "Feature", "geometry": {"type": "Point", "coordinates": [11.597583942198376, -2.9146975315982413]}, "properties": {"id": 113, "name": "SCN10A, SCN2A, NALCN", "size": 18, "labelId": "113", "symbolzoom": 8}}, {"type": "Feature", "geometry": {"type": "Point", "coordinates": [7.03717821872972, 1.7997685189816783]}, "properties": {"id": 114, "name": "PPIG, PRPF38B, PNISR", "size": 82, "labelId": "114", "symbolzoom": 4}}, {"type": "Feature", "geometry": {"type": "Point", "coordinates": [8.638026774784592, -2.671448427251696]}, "properties": {"id": 115, "name": "MS4A5, MS4A1, MS4A2", "size": 26, "labelId": "115", "symbolzoom": 7}}, {"type": "Feature", "geometry": {"type": "Point", "coordinates": [11.580900231877097, -2.3580530413744705]}, "properties": {"id": 116, "name": "GRIK3, GRIN3A, GRIN1", "size": 46, "labelId": "116", "symbolzoom": 6}}, {"type": "Feature", "geometry": {"type": "Point", "coordinates": [11.176583912481087, -2.7607295965586256]}, "properties": {"id": 117, "name": "GPRC6A, TAS1R3, TAS1R2", "size": 26, "labelId": "117", "symbolzoom": 7}}, {"type": "Feature", "geometry": {"type": "Point", "coordinates": [8.444214017261714, -3.2397427936317555]}, "properties": {"id": 118, "name": "CLDND1, CLDN12, MOSMO", "size": 75, "labelId": "118", "symbolzoom": 5}}, {"type": "Feature", "geometry": {"type": "Point", "coordinates": [8.783868229400634, -3.095285314010815]}, "properties": {"id": 119, "name": "SSPN, TMEM179B, SYNGR2", "size": 37, "labelId": "119", "symbolzoom": 7}}, {"type": "Feature", "geometry": {"type": "Point", "coordinates": [11.038318113980434, -3.2311522087978384]}, "properties": {"id": 120, "name": "CRHR1, ADCYAP1R1, CALCR", "size": 19, "labelId": "120", "symbolzoom": 8}}, {"type": "Feature", "geometry": {"type": "Point", "coordinates": [11.39611211895559, -3.0130074726795635]}, "properties": {"id": 121, "name": "ABCC11, ABCC1, ABCB1", "size": 22, "labelId": "121", "symbolzoom": 8}}, {"type": "Feature", "geometry": {"type": "Point", "coordinates": [11.196281238989483, -3.1187418632832182]}, "properties": {"id": 122, "name": "ADGRF4, ADGRE2, ADGRE3", "size": 18, "labelId": "122", "symbolzoom": 8}}, {"type": "Feature", "geometry": {"type": "Point", "coordinates": [14.14621203900964, 1.3996234551523905]}, "properties": {"id": 123, "name": "AKR1E2, AKR1B1, AKR1B15", "size": 10, "labelId": "123", "symbolzoom": 9}}, {"type": "Feature", "geometry": {"type": "Point", "coordinates": [14.493254885649206, 1.257191791283495]}, "properties": {"id": 124, "name": "SULT1A1, SULT1C3, SULT6B1", "size": 14, "labelId": "124", "symbolzoom": 9}}, {"type": "Feature", "geometry": {"type": "Point", "coordinates": [14.464174707611683, 1.6620699000460815]}, "properties": {"id": 125, "name": "GSTA4, GSTA3, GSTO1", "size": 16, "labelId": "125", "symbolzoom": 8}}, {"type": "Feature", "geometry": {"type": "Point", "coordinates": [10.714979305227013, -2.94653391658271]}, "properties": {"id": 126, "name": "RHBDF2, TMC3, MCOLN1", "size": 67, "labelId": "126", "symbolzoom": 5}}, {"type": "Feature", "geometry": {"type": "Point", "coordinates": [14.904975039356863, -1.2168806928344404]}, "properties": {"id": 127, "name": "RNASE12, RNASE9, RNASE7", "size": 16, "labelId": "127", "symbolzoom": 8}}, {"type": "Feature", "geometry": {"type": "Point", "coordinates": [15.316658021478386, -1.9230452566851737]}, "properties": {"id": 128, "name": "NMU, SCG5, GHRL", "size": 89, "labelId": "128", "symbolzoom": 4}}, {"type": "Feature", "geometry": {"type": "Point", "coordinates": [11.056870985444023, -2.370802624051456]}, "properties": {"id": 129, "name": "CNNM1, ABCB6, ADCY4", "size": 17, "labelId": "129", "symbolzoom": 8}}, {"type": "Feature", "geometry": {"type": "Point", "coordinates": [10.294783598101503, -2.3722862530091637]}, "properties": {"id": 130, "name": "SYVN1, KCNN4, KCNK4", "size": 18, "labelId": "130", "symbolzoom": 8}}, {"type": "Feature", "geometry": {"type": "Point", "coordinates": [8.65211568293718, 5.235236476320013]}, "properties": {"id": 131, "name": "PRH1, PRB4, PRB3", "size": 27, "labelId": "131", "symbolzoom": 7}}, {"type": "Feature", "geometry": {"type": "Point", "coordinates": [10.673891608310145, -2.4996081739622538]}, "properties": {"id": 132, "name": "KCNV2, KCNA6, KCNF1", "size": 25, "labelId": "132", "symbolzoom": 7}}, {"type": "Feature", "geometry": {"type": "Point", "coordinates": [10.701972406444424, -2.2059196131495327]}, "properties": {"id": 133, "name": "KCNJ5, CNGA3, KCNH4", "size": 59, "labelId": "133", "symbolzoom": 6}}, {"type": "Feature", "geometry": {"type": "Point", "coordinates": [10.761498039125296, -3.5036937063691633]}, "properties": {"id": 134, "name": "SLC4A1, SLC4A9, SLC4A2", "size": 21, "labelId": "134", "symbolzoom": 8}}, {"type": "Feature", "geometry": {"type": "Point", "coordinates": [10.542963945207841, -3.6783508037611163]}, "properties": {"id": 135, "name": "CLCNKA, CLCNKB, CLCN7", "size": 37, "labelId": "135", "symbolzoom": 7}}, {"type": "Feature", "geometry": {"type": "Point", "coordinates": [13.853719120839909, -2.9428152781748187]}, "properties": {"id": 136, "name": "PRSS48, PRSS54, ACR", "size": 22, "labelId": "136", "symbolzoom": 8}}, {"type": "Feature", "geometry": {"type": "Point", "coordinates": [13.650037256264103, -2.42492506767923]}, "properties": {"id": 137, "name": "PLG, F12, F11", "size": 43, "labelId": "137", "symbolzoom": 6}}, {"type": "Feature", "geometry": {"type": "Point", "coordinates": [9.254814721984367, 5.443183220759082]}, "properties": {"id": 138, "name": "EVI2B, DYNAP, MUC15", "size": 50, "labelId": "138", "symbolzoom": 6}}, {"type": "Feature", "geometry": {"type": "Point", "coordinates": [10.16104927638936, -1.82913068283406]}, "properties": {"id": 139, "name": "ZDHHC1, TMEM151B, TMEM151A", "size": 43, "labelId": "139", "symbolzoom": 6}}, {"type": "Feature", "geometry": {"type": "Point", "coordinates": [9.800262769024108, -2.0284329853365817]}, "properties": {"id": 140, "name": "GJC3, GJD3, VANGL1", "size": 48, "labelId": "140", "symbolzoom": 6}}, {"type": "Feature", "geometry": {"type": "Point", "coordinates": [8.982534055547003, 4.776930126142629]}, "properties": {"id": 141, "name": "ODAPH, PSORS1C2, MBD3L1", "size": 17, "labelId": "141", "symbolzoom": 8}}, {"type": "Feature", "geometry": {"type": "Point", "coordinates": [10.473948035703486, -4.182539423548331]}, "properties": {"id": 142, "name": "SLC6A12, SLC6A9, SLC6A13", "size": 15, "labelId": "142", "symbolzoom": 8}}, {"type": "Feature", "geometry": {"type": "Point", "coordinates": [10.275677094234911, -4.0935157211934685]}, "properties": {"id": 143, "name": "SLC5A12, SV2C, SLC7A2", "size": 30, "labelId": "143", "symbolzoom": 7}}, {"type": "Feature", "geometry": {"type": "Point", "coordinates": [9.962460129043551, -4.136760382562915]}, "properties": {"id": 144, "name": "SPNS1, MFSD11, SLC17A9", "size": 115, "labelId": "144", "symbolzoom": 3}}, {"type": "Feature", "geometry": {"type": "Point", "coordinates": [10.23679373415355, -3.845196275838891]}, "properties": {"id": 145, "name": "SLC38A2, SLC36A1, SLC34A3", "size": 39, "labelId": "145", "symbolzoom": 7}}, {"type": "Feature", "geometry": {"type": "Point", "coordinates": [9.527077440241264, -2.4456463381107767]}, "properties": {"id": 146, "name": "YIPF5, YIF1B, PIGC", "size": 34, "labelId": "146", "symbolzoom": 7}}, {"type": "Feature", "geometry": {"type": "Point", "coordinates": [10.225841320142314, -3.0191942878868336]}, "properties": {"id": 147, "name": "LMF1, DPY19L4, PIGN", "size": 62, "labelId": "147", "symbolzoom": 5}}, {"type": "Feature", "geometry": {"type": "Point", "coordinates": [12.134713573150405, 0.1935462520762445]}, "properties": {"id": 148, "name": "IFI27, APOL5, IFI6", "size": 33, "labelId": "148", "symbolzoom": 7}}, {"type": "Feature", "geometry": {"type": "Point", "coordinates": [9.25613218897928, 7.723907444835962]}, "properties": {"id": 149, "name": "NCR1, LILRA4, LILRA1", "size": 21, "labelId": "149", "symbolzoom": 8}}, {"type": "Feature", "geometry": {"type": "Point", "coordinates": [9.09783132946082, -2.522440985703767]}, "properties": {"id": 150, "name": "DAD1, CNIH2, ATP6V0E2", "size": 69, "labelId": "150", "symbolzoom": 5}}, {"type": "Feature", "geometry": {"type": "Point", "coordinates": [9.431832463797598, -2.884714981652686]}, "properties": {"id": 151, "name": "SERINC1, TMEM33, EI24", "size": 32, "labelId": "151", "symbolzoom": 7}}, {"type": "Feature", "geometry": {"type": "Point", "coordinates": [9.839820165631545, -2.7058118350699565]}, "properties": {"id": 152, "name": "ZDHHC24, TMEM39A, GPR137", "size": 58, "labelId": "152", "symbolzoom": 6}}, {"type": "Feature", "geometry": {"type": "Point", "coordinates": [10.170690728193671, -3.4275141928632182]}, "properties": {"id": 153, "name": "SLC39A9, SLC39A7, SLC39A1", "size": 43, "labelId": "153", "symbolzoom": 6}}, {"type": "Feature", "geometry": {"type": "Point", "coordinates": [9.635305144698556, 7.284553006359306]}, "properties": {"id": 154, "name": "BTN3A3, BTN2A1, BTN2A2", "size": 10, "labelId": "154", "symbolzoom": 9}}, {"type": "Feature", "geometry": {"type": "Point", "coordinates": [9.270396001707402, -3.488502560646951]}, "properties": {"id": 155, "name": "TMEM45B, CYBRD1, TMEM45A", "size": 25, "labelId": "155", "symbolzoom": 7}}, {"type": "Feature", "geometry": {"type": "Point", "coordinates": [9.665528161260902, -2.966834087243244]}, "properties": {"id": 156, "name": "TRAM1L1, AQP11, TMEM79", "size": 21, "labelId": "156", "symbolzoom": 8}}, {"type": "Feature", "geometry": {"type": "Point", "coordinates": [9.431121978486372, -3.1471552611748788]}, "properties": {"id": 157, "name": "MGST2, MGST3, VKORC1", "size": 20, "labelId": "157", "symbolzoom": 8}}, {"type": "Feature", "geometry": {"type": "Point", "coordinates": [13.507718949659333, 0.5090983829279655]}, "properties": {"id": 158, "name": "CES4A, ENTPD6, ENTPD5", "size": 21, "labelId": "158", "symbolzoom": 8}}, {"type": "Feature", "geometry": {"type": "Point", "coordinates": [9.893137030406463, -3.3895971604505504]}, "properties": {"id": 159, "name": "SLC31A1, NIPAL2, SLC35A1", "size": 39, "labelId": "159", "symbolzoom": 7}}, {"type": "Feature", "geometry": {"type": "Point", "coordinates": [9.875827093654745, -3.024923611340296]}, "properties": {"id": 160, "name": "XKR3, HHATL, TM6SF1", "size": 61, "labelId": "160", "symbolzoom": 5}}, {"type": "Feature", "geometry": {"type": "Point", "coordinates": [9.707944341828311, -3.3582320790034625]}, "properties": {"id": 161, "name": "SRD5A3, HACD4, INSIG1", "size": 15, "labelId": "161", "symbolzoom": 8}}, {"type": "Feature", "geometry": {"type": "Point", "coordinates": [9.578358037816864, -3.359756491130245]}, "properties": {"id": 162, "name": "CERS2, ADIPOR1, CERS3", "size": 19, "labelId": "162", "symbolzoom": 8}}, {"type": "Feature", "geometry": {"type": "Point", "coordinates": [9.462530005571264, -3.403860440668252]}, "properties": {"id": 163, "name": "ACER2, PGAP3, TLCD2", "size": 32, "labelId": "163", "symbolzoom": 7}}, {"type": "Feature", "geometry": {"type": "Point", "coordinates": [6.144864271233742, 2.8799641236476647]}, "properties": {"id": 164, "name": "ZNF652, PRDM15, ZBTB7C", "size": 168, "labelId": "164", "symbolzoom": 2}}, {"type": "Feature", "geometry": {"type": "Point", "coordinates": [6.544291428970757, 4.034001674644852]}, "properties": {"id": 165, "name": "LHX8, LMX1B, LHX4", "size": 14, "labelId": "165", "symbolzoom": 9}}, {"type": "Feature", "geometry": {"type": "Point", "coordinates": [6.2713707182730385, 3.462557483054009]}, "properties": {"id": 166, "name": "SCRT2, KLF6, KLF10", "size": 25, "labelId": "166", "symbolzoom": 7}}, {"type": "Feature", "geometry": {"type": "Point", "coordinates": [6.502733713693018, 3.68240018046349]}, "properties": {"id": 167, "name": "KLF4, EGR3, EGR4", "size": 21, "labelId": "167", "symbolzoom": 8}}, {"type": "Feature", "geometry": {"type": "Point", "coordinates": [11.356836560849146, 3.8632324158547524]}, "properties": {"id": 168, "name": "ATP6V1G3, STX17, ATP6V1E2", "size": 23, "labelId": "168", "symbolzoom": 8}}, {"type": "Feature", "geometry": {"type": "Point", "coordinates": [11.152721915940148, 4.190655145458491]}, "properties": {"id": 169, "name": "VTI1B, STX4, STX5", "size": 34, "labelId": "169", "symbolzoom": 7}}, {"type": "Feature", "geometry": {"type": "Point", "coordinates": [12.530823602448336, 3.6255185668173313]}, "properties": {"id": 170, "name": "TIMM13, COA5, COX19", "size": 34, "labelId": "170", "symbolzoom": 7}}, {"type": "Feature", "geometry": {"type": "Point", "coordinates": [11.646843119536971, 3.881718613269201]}, "properties": {"id": 171, "name": "RGS21, RGS19, RGS2", "size": 13, "labelId": "171", "symbolzoom": 9}}, {"type": "Feature", "geometry": {"type": "Point", "coordinates": [11.85774666007579, 3.9715832764216774]}, "properties": {"id": 172, "name": "GNG10, GNG5, SERP1", "size": 28, "labelId": "172", "symbolzoom": 7}}, {"type": "Feature", "geometry": {"type": "Point", "coordinates": [13.92096775006569, 1.5744214750035255]}, "properties": {"id": 173, "name": "ADH6, ADH1A, ADH1B", "size": 18, "labelId": "173", "symbolzoom": 8}}, {"type": "Feature", "geometry": {"type": "Point", "coordinates": [12.79995577626688, -2.504001145004138]}, "properties": {"id": 174, "name": "LRIG2, SLIT1, SLIT3", "size": 18, "labelId": "174", "symbolzoom": 8}}, {"type": "Feature", "geometry": {"type": "Point", "coordinates": [11.661304447971625, 3.40607252738852]}, "properties": {"id": 175, "name": "YPEL3, YPEL2, SNRPB2", "size": 20, "labelId": "175", "symbolzoom": 8}}, {"type": "Feature", "geometry": {"type": "Point", "coordinates": [12.847564307829446, 1.0328199897736845]}, "properties": {"id": 176, "name": "PNPLA3, ABHD1, GDE1", "size": 65, "labelId": "176", "symbolzoom": 5}}, {"type": "Feature", "geometry": {"type": "Point", "coordinates": [12.251222516114936, -0.6760709254126255]}, "properties": {"id": 177, "name": "P2RX5, P2RX1, P2RX4", "size": 33, "labelId": "177", "symbolzoom": 7}}, {"type": "Feature", "geometry": {"type": "Point", "coordinates": [12.442587740516089, 0.1574453925241925]}, "properties": {"id": 178, "name": "TGM6, GGT7, TGM1", "size": 19, "labelId": "178", "symbolzoom": 8}}, {"type": "Feature", "geometry": {"type": "Point", "coordinates": [10.439975491759693, 4.076912242934414]}, "properties": {"id": 179, "name": "PLIN1, TMEM263, SMKR1", "size": 30, "labelId": "179", "symbolzoom": 7}}, {"type": "Feature", "geometry": {"type": "Point", "coordinates": [8.030880351466514, 1.1870023229288744]}, "properties": {"id": 180, "name": "SPATA17, SPA17, EFHC1", "size": 35, "labelId": "180", "symbolzoom": 7}}, {"type": "Feature", "geometry": {"type": "Point", "coordinates": [14.484560431184287, 0.228220398204434]}, "properties": {"id": 181, "name": "ST6GALNAC3, ST3GAL1, ST3GAL2", "size": 20, "labelId": "181", "symbolzoom": 8}}, {"type": "Feature", "geometry": {"type": "Point", "coordinates": [12.694536488815388, -2.001610311020702]}, "properties": {"id": 182, "name": "COL6A5, NOTCH2, COL6A6", "size": 52, "labelId": "182", "symbolzoom": 6}}, {"type": "Feature", "geometry": {"type": "Point", "coordinates": [8.56522389212357, 0.629161243023111]}, "properties": {"id": 183, "name": "SPAG9, TNIK, DCDC1", "size": 25, "labelId": "183", "symbolzoom": 7}}, {"type": "Feature", "geometry": {"type": "Point", "coordinates": [12.430731102673395, 0.6609337977010026]}, "properties": {"id": 184, "name": "PADI3, PADI2, CPT1B", "size": 15, "labelId": "184", "symbolzoom": 8}}, {"type": "Feature", "geometry": {"type": "Point", "coordinates": [12.766186783432317, 0.5430355251953015]}, "properties": {"id": 185, "name": "GDPD4, ALOX15B, ALOX15", "size": 30, "labelId": "185", "symbolzoom": 7}}, {"type": "Feature", "geometry": {"type": "Point", "coordinates": [11.963977249719722, 0.715562447175256]}, "properties": {"id": 186, "name": "APOF, DNAJA2, DNAJB4", "size": 22, "labelId": "186", "symbolzoom": 8}}, {"type": "Feature", "geometry": {"type": "Point", "coordinates": [14.733348734558842, -1.8414046481395174]}, "properties": {"id": 187, "name": "CGB3, CGB5, CGB2", "size": 17, "labelId": "187", "symbolzoom": 8}}, {"type": "Feature", "geometry": {"type": "Point", "coordinates": [7.298604135106923, 0.693582466797954]}, "properties": {"id": 188, "name": "GOLGA8J, GOLGA8Q, GOLGA8K", "size": 34, "labelId": "188", "symbolzoom": 7}}, {"type": "Feature", "geometry": {"type": "Point", "coordinates": [11.8347275364489, -0.19080642870974152]}, "properties": {"id": 189, "name": "DNAJC3, GBP4, GBP2", "size": 37, "labelId": "189", "symbolzoom": 7}}, {"type": "Feature", "geometry": {"type": "Point", "coordinates": [8.114995357197103, 0.259333322833053]}, "properties": {"id": 190, "name": "ERC2, RUFY2, KIF5A", "size": 51, "labelId": "190", "symbolzoom": 6}}, {"type": "Feature", "geometry": {"type": "Point", "coordinates": [14.336770335508831, -0.887358691220996]}, "properties": {"id": 191, "name": "AMH, ANGPT2, ANGPT1", "size": 84, "labelId": "191", "symbolzoom": 4}}, {"type": "Feature", "geometry": {"type": "Point", "coordinates": [11.50987783970934, 0.34883141453903055]}, "properties": {"id": 192, "name": "SLFN11, SAMD9, SLFN13", "size": 36, "labelId": "192", "symbolzoom": 7}}, {"type": "Feature", "geometry": {"type": "Point", "coordinates": [11.601058464724854, 0.874714343550743]}, "properties": {"id": 193, "name": "UBA7, NOS3, NKPD1", "size": 63, "labelId": "193", "symbolzoom": 5}}, {"type": "Feature", "geometry": {"type": "Point", "coordinates": [7.579758195941798, 0.8666863936007361]}, "properties": {"id": 194, "name": "CFAP100, IQCD, SPZ1", "size": 63, "labelId": "194", "symbolzoom": 5}}, {"type": "Feature", "geometry": {"type": "Point", "coordinates": [12.129678287399809, -2.1406532298071133]}, "properties": {"id": 195, "name": "FREM3, CELSR2, CELSR3", "size": 18, "labelId": "195", "symbolzoom": 8}}, {"type": "Feature", "geometry": {"type": "Point", "coordinates": [12.588280119426313, -1.3555194236459256]}, "properties": {"id": 196, "name": "ITGAX, SORCS2, ITGA2B", "size": 49, "labelId": "196", "symbolzoom": 6}}, {"type": "Feature", "geometry": {"type": "Point", "coordinates": [12.127369595402367, -1.3969643823090552]}, "properties": {"id": 197, "name": "PTPRO, TMEM132E, PTPRJ", "size": 54, "labelId": "197", "symbolzoom": 6}}, {"type": "Feature", "geometry": {"type": "Point", "coordinates": [12.16730495955298, -1.7259741903598393]}, "properties": {"id": 198, "name": "ROBO1, CNTN3, NCAM2", "size": 35, "labelId": "198", "symbolzoom": 7}}, {"type": "Feature", "geometry": {"type": "Point", "coordinates": [14.78516680091819, -2.5351973774246166]}, "properties": {"id": 199, "name": "WFDC11, DEFB131B, DEFB107B", "size": 42, "labelId": "199", "symbolzoom": 6}}, {"type": "Feature", "geometry": {"type": "Point", "coordinates": [14.412929941476744, -2.00168301027237]}, "properties": {"id": 200, "name": "CLPSL2, WFDC5, GPIHBP1", "size": 62, "labelId": "200", "symbolzoom": 5}}, {"type": "Feature", "geometry": {"type": "Point", "coordinates": [14.600712342893825, -2.24762780431638]}, "properties": {"id": 201, "name": "PI3, TFF1, SPINK7", "size": 25, "labelId": "201", "symbolzoom": 7}}, {"type": "Feature", "geometry": {"type": "Point", "coordinates": [7.779790657235423, 0.5228102018404065]}, "properties": {"id": 202, "name": "RABEP2, TNIP3, OPTN", "size": 20, "labelId": "202", "symbolzoom": 8}}, {"type": "Feature", "geometry": {"type": "Point", "coordinates": [7.495847283091399, 0.290439964234983]}, "properties": {"id": 203, "name": "CEP152, DEUP1, CROCC2", "size": 85, "labelId": "203", "symbolzoom": 4}}, {"type": "Feature", "geometry": {"type": "Point", "coordinates": [12.919874460395638, -1.234115712096529]}, "properties": {"id": 204, "name": "CLCA1, ANTXR1, CLCA2", "size": 44, "labelId": "204", "symbolzoom": 6}}, {"type": "Feature", "geometry": {"type": "Point", "coordinates": [13.264995447852208, -1.0946696305039576]}, "properties": {"id": 205, "name": "TGFBI, RGMB, VSTM2B", "size": 78, "labelId": "205", "symbolzoom": 5}}, {"type": "Feature", "geometry": {"type": "Point", "coordinates": [8.355683602931798, 0.9647544981117205]}, "properties": {"id": 206, "name": "CFAP221, GOPC, NPHP1", "size": 20, "labelId": "206", "symbolzoom": 8}}, {"type": "Feature", "geometry": {"type": "Point", "coordinates": [8.046862019350097, 0.7149404966588605]}, "properties": {"id": 207, "name": "KIF6, RILPL1, CRACR2B", "size": 91, "labelId": "207", "symbolzoom": 4}}, {"type": "Feature", "geometry": {"type": "Point", "coordinates": [13.643877090028017, -0.6215899265320171]}, "properties": {"id": 208, "name": "REN, NAPSA, PGC", "size": 16, "labelId": "208", "symbolzoom": 8}}, {"type": "Feature", "geometry": {"type": "Point", "coordinates": [13.81336933002104, -0.7414778224993279]}, "properties": {"id": 209, "name": "CTSS, CTSL, LOXL1", "size": 16, "labelId": "209", "symbolzoom": 8}}, {"type": "Feature", "geometry": {"type": "Point", "coordinates": [13.722123073758393, -1.577171854490868]}, "properties": {"id": 210, "name": "GFRA4, VWC2, FSTL1", "size": 25, "labelId": "210", "symbolzoom": 7}}, {"type": "Feature", "geometry": {"type": "Point", "coordinates": [12.674181994456937, 0.0385345423227785]}, "properties": {"id": 211, "name": "TXNDC16, RNF103, CASQ2", "size": 24, "labelId": "211", "symbolzoom": 8}}, {"type": "Feature", "geometry": {"type": "Point", "coordinates": [12.751849436188262, -0.50148299306887]}, "properties": {"id": 212, "name": "TUSC3, DDOST, SSR2", "size": 107, "labelId": "212", "symbolzoom": 3}}, {"type": "Feature", "geometry": {"type": "Point", "coordinates": [13.317958813696338, -0.5918810330749525]}, "properties": {"id": 213, "name": "PNLIPRP2, PNLIP, PNLIPRP3", "size": 44, "labelId": "213", "symbolzoom": 6}}, {"type": "Feature", "geometry": {"type": "Point", "coordinates": [13.246249907115025, -1.953029899592178]}, "properties": {"id": 214, "name": "SUSD1, ADAMTSL2, SPON1", "size": 192, "labelId": "214", "symbolzoom": 2}}, {"type": "Feature", "geometry": {"type": "Point", "coordinates": [14.613550575529912, 0.0702483243287655]}, "properties": {"id": 215, "name": "GALNT6, GALNT1, GALNT3", "size": 16, "labelId": "215", "symbolzoom": 8}}, {"type": "Feature", "geometry": {"type": "Point", "coordinates": [14.120210385043674, 0.1726754638293045]}, "properties": {"id": 216, "name": "GAL3ST3, A4GNT, CHST5", "size": 153, "labelId": "216", "symbolzoom": 2}}, {"type": "Feature", "geometry": {"type": "Point", "coordinates": [13.72658103852687, 0.064739510708298]}, "properties": {"id": 217, "name": "B3GALNT2, HYAL1, HYAL4", "size": 28, "labelId": "217", "symbolzoom": 7}}, {"type": "Feature", "geometry": {"type": "Point", "coordinates": [13.720311761244389, -0.252983314230947]}, "properties": {"id": 218, "name": "P3H1, CRTAP, P3H2", "size": 26, "labelId": "218", "symbolzoom": 7}}, {"type": "Feature", "geometry": {"type": "Point", "coordinates": [14.493177374284077, -1.4445273427408631]}, "properties": {"id": 219, "name": "SOST, GREM2, FGFBP2", "size": 24, "labelId": "219", "symbolzoom": 8}}, {"type": "Feature", "geometry": {"type": "Point", "coordinates": [13.61642125140882, -1.146540021840718]}, "properties": {"id": 220, "name": "MMP7, MMP28, MMP19", "size": 50, "labelId": "220", "symbolzoom": 6}}, {"type": "Feature", "geometry": {"type": "Point", "coordinates": [9.799775948048566, 5.819766223427088]}, "properties": {"id": 221, "name": "LTBR, TNFRSF1A, TNFRSF18", "size": 38, "labelId": "221", "symbolzoom": 7}}, {"type": "Feature", "geometry": {"type": "Point", "coordinates": [13.902732136505726, -1.9958199996604655]}, "properties": {"id": 222, "name": "CCN5, PTN, RSPO2", "size": 18, "labelId": "222", "symbolzoom": 8}}, {"type": "Feature", "geometry": {"type": "Point", "coordinates": [9.85645524097215, 4.761429056354097]}, "properties": {"id": 223, "name": "APELA, PLSCR1, PLSCR4", "size": 26, "labelId": "223", "symbolzoom": 7}}, {"type": "Feature", "geometry": {"type": "Point", "coordinates": [13.888897998968142, -1.196432179795901]}, "properties": {"id": 224, "name": "KNG1, CLU, PLA2G12B", "size": 57, "labelId": "224", "symbolzoom": 6}}, {"type": "Feature", "geometry": {"type": "Point", "coordinates": [14.203731939347072, -1.2708638526706548]}, "properties": {"id": 225, "name": "REG1A, REG3A, REG4", "size": 15, "labelId": "225", "symbolzoom": 8}}, {"type": "Feature", "geometry": {"type": "Point", "coordinates": [14.160676414255857, -1.8743525197150055]}, "properties": {"id": 226, "name": "IGFBP1, DKK1, CFC1B", "size": 21, "labelId": "226", "symbolzoom": 8}}, {"type": "Feature", "geometry": {"type": "Point", "coordinates": [14.144707680345757, -1.505090822555413]}, "properties": {"id": 227, "name": "PLA2G2E, PLA2G2A, PLA2G1B", "size": 21, "labelId": "227", "symbolzoom": 8}}, {"type": "Feature", "geometry": {"type": "Point", "coordinates": [9.478691232013837, 6.366357369375441]}, "properties": {"id": 228, "name": "SCIMP, GAPT, TRAT1", "size": 25, "labelId": "228", "symbolzoom": 7}}, {"type": "Feature", "geometry": {"type": "Point", "coordinates": [13.349728365836416, 0.13708418275050951]}, "properties": {"id": 229, "name": "ARSG, CTBS, CPVL", "size": 158, "labelId": "229", "symbolzoom": 2}}, {"type": "Feature", "geometry": {"type": "Point", "coordinates": [13.079642548901264, 0.3371076855703335]}, "properties": {"id": 230, "name": "ERAP1, ERAP2, ART3", "size": 49, "labelId": "230", "symbolzoom": 6}}, {"type": "Feature", "geometry": {"type": "Point", "coordinates": [10.10184915600424, 5.650159497599352]}, "properties": {"id": 231, "name": "EREG, PTTG1IP, EPGN", "size": 19, "labelId": "231", "symbolzoom": 8}}, {"type": "Feature", "geometry": {"type": "Point", "coordinates": [7.224675548713142, 4.2236690653931435]}, "properties": {"id": 232, "name": "FOXG1, FOXI2, SIX1", "size": 58, "labelId": "232", "symbolzoom": 6}}, {"type": "Feature", "geometry": {"type": "Point", "coordinates": [9.360054410004851, 7.360437357696064]}, "properties": {"id": 233, "name": "SIGLEC7, SIGLEC8, CD33", "size": 14, "labelId": "233", "symbolzoom": 9}}, {"type": "Feature", "geometry": {"type": "Point", "coordinates": [9.458611012058121, 7.080868099172035]}, "properties": {"id": 234, "name": "FCGR2A, FCGR3A, FCER1A", "size": 31, "labelId": "234", "symbolzoom": 7}}, {"type": "Feature", "geometry": {"type": "Point", "coordinates": [6.83810191702697, 4.08566581664967]}, "properties": {"id": 235, "name": "GATA3, TFAP2A, TFAP2E", "size": 20, "labelId": "235", "symbolzoom": 8}}, {"type": "Feature", "geometry": {"type": "Point", "coordinates": [6.8239097683970975, 4.568418894693698]}, "properties": {"id": 236, "name": "OTX2, OTP, IRX6", "size": 147, "labelId": "236", "symbolzoom": 2}}, {"type": "Feature", "geometry": {"type": "Point", "coordinates": [9.942600234844164, 6.844429725545357]}, "properties": {"id": 237, "name": "VSIG10L, NPHS1, KIRREL2", "size": 18, "labelId": "237", "symbolzoom": 8}}, {"type": "Feature", "geometry": {"type": "Point", "coordinates": [9.566062523073647, 6.763959817264899]}, "properties": {"id": 238, "name": "SIGLEC15, JAML, TIGIT", "size": 87, "labelId": "238", "symbolzoom": 4}}, {"type": "Feature", "geometry": {"type": "Point", "coordinates": [9.75594144721888, 5.267124659799666]}, "properties": {"id": 239, "name": "C1orf159, TMEM52, MLANA", "size": 40, "labelId": "239", "symbolzoom": 6}}, {"type": "Feature", "geometry": {"type": "Point", "coordinates": [10.135366278605211, 5.195411038372768]}, "properties": {"id": 240, "name": "ENHO, KCNE4, SMIM41", "size": 112, "labelId": "240", "symbolzoom": 3}}, {"type": "Feature", "geometry": {"type": "Point", "coordinates": [8.02044397375691, 3.659431261857385]}, "properties": {"id": 241, "name": "CREB3L2, CREB3L3, CREB3", "size": 62, "labelId": "241", "symbolzoom": 5}}, {"type": "Feature", "geometry": {"type": "Point", "coordinates": [9.274851668486562, 0.1492200489344835]}, "properties": {"id": 242, "name": "RGPD8, RGPD1, UNC13A", "size": 26, "labelId": "242", "symbolzoom": 7}}, {"type": "Feature", "geometry": {"type": "Point", "coordinates": [7.532479729101909, 3.7611414652715345]}, "properties": {"id": 243, "name": "SPDEF, EHF, ELF3", "size": 15, "labelId": "243", "symbolzoom": 8}}, {"type": "Feature", "geometry": {"type": "Point", "coordinates": [7.844467278026277, 4.182933884532439]}, "properties": {"id": 244, "name": "ASCL5, MYOG, MKX", "size": 99, "labelId": "244", "symbolzoom": 4}}, {"type": "Feature", "geometry": {"type": "Point", "coordinates": [7.099315547876857, 3.6406001864010524]}, "properties": {"id": 245, "name": "RFX6, SIM1, RUNX1", "size": 63, "labelId": "245", "symbolzoom": 5}}, {"type": "Feature", "geometry": {"type": "Point", "coordinates": [9.927705417960864, 6.355645759220808]}, "properties": {"id": 246, "name": "MPZL2, F11R, CADM3", "size": 75, "labelId": "246", "symbolzoom": 5}}, {"type": "Feature", "geometry": {"type": "Point", "coordinates": [13.570996049293662, 3.7730581095590625]}, "properties": {"id": 247, "name": "NDUFB2, ATP5MG, COX6A1", "size": 92, "labelId": "247", "symbolzoom": 4}}, {"type": "Feature", "geometry": {"type": "Point", "coordinates": [10.132381696890386, 6.4390115634281395]}, "properties": {"id": 248, "name": "IL2RB, F3, CSF3R", "size": 21, "labelId": "248", "symbolzoom": 8}}, {"type": "Feature", "geometry": {"type": "Point", "coordinates": [10.244111297286523, 6.587718309595102]}, "properties": {"id": 249, "name": "IFNAR1, IL18RAP, IL31RA", "size": 23, "labelId": "249", "symbolzoom": 8}}, {"type": "Feature", "geometry": {"type": "Point", "coordinates": [7.37002719788071, 3.1741707871983387]}, "properties": {"id": 250, "name": "FOXP2, FOXP4, SSBP3", "size": 27, "labelId": "250", "symbolzoom": 7}}, {"type": "Feature", "geometry": {"type": "Point", "coordinates": [6.903722981973187, 3.2474864131808103]}, "properties": {"id": 251, "name": "RBM24, MBNL1, CELF4", "size": 62, "labelId": "251", "symbolzoom": 5}}, {"type": "Feature", "geometry": {"type": "Point", "coordinates": [7.004273571643779, 2.7744222059308825]}, "properties": {"id": 252, "name": "PABPC4, PABPC3, PABPC4L", "size": 29, "labelId": "252", "symbolzoom": 7}}, {"type": "Feature", "geometry": {"type": "Point", "coordinates": [7.865655598851108, 3.0487872202738524]}, "properties": {"id": 253, "name": "SMAD5, NFATC3, NOL4L", "size": 63, "labelId": "253", "symbolzoom": 5}}, {"type": "Feature", "geometry": {"type": "Point", "coordinates": [6.930043166194553, 2.32189505378]}, "properties": {"id": 254, "name": "FAM98B, FAM98A, HNRNPR", "size": 67, "labelId": "254", "symbolzoom": 5}}, {"type": "Feature", "geometry": {"type": "Point", "coordinates": [7.410469635543942, 2.331401082166765]}, "properties": {"id": 255, "name": "CPSF7, SCAF4, ZC3H4", "size": 39, "labelId": "255", "symbolzoom": 7}}, {"type": "Feature", "geometry": {"type": "Point", "coordinates": [7.850330645840821, 1.8565395621367164]}, "properties": {"id": 256, "name": "ANKRD11, GIGYF2, ASH1L", "size": 39, "labelId": "256", "symbolzoom": 7}}, {"type": "Feature", "geometry": {"type": "Point", "coordinates": [7.859330763654942, 2.5280711509669054]}, "properties": {"id": 257, "name": "EPC1, FBRS, SEC16B", "size": 292, "labelId": "257", "symbolzoom": 2}}, {"type": "Feature", "geometry": {"type": "Point", "coordinates": [13.486458169393192, 1.1647429591770404]}, "properties": {"id": 258, "name": "DHRS7, RDH10, KDSR", "size": 50, "labelId": "258", "symbolzoom": 6}}, {"type": "Feature", "geometry": {"type": "Point", "coordinates": [13.007421697401394, 3.792015257534557]}, "properties": {"id": 259, "name": "LYRM4, LYRM2, LYRM9", "size": 20, "labelId": "259", "symbolzoom": 8}}, {"type": "Feature", "geometry": {"type": "Point", "coordinates": [10.798150411067487, 3.7447117265469565]}, "properties": {"id": 260, "name": "ERICH2, TPD52L2, TPD52", "size": 52, "labelId": "260", "symbolzoom": 6}}, {"type": "Feature", "geometry": {"type": "Point", "coordinates": [9.804673870237774, 0.092394036279155]}, "properties": {"id": 261, "name": "SYT1, SYT17, SYT6", "size": 33, "labelId": "261", "symbolzoom": 7}}, {"type": "Feature", "geometry": {"type": "Point", "coordinates": [8.573707429518956, 3.7021031813096035]}, "properties": {"id": 262, "name": "SERTAD1, GPRIN1, PRR36", "size": 53, "labelId": "262", "symbolzoom": 6}}, {"type": "Feature", "geometry": {"type": "Point", "coordinates": [9.927992481972193, -0.5183157653953585]}, "properties": {"id": 263, "name": "TEP1, HELZ2, ZFYVE26", "size": 78, "labelId": "263", "symbolzoom": 5}}, {"type": "Feature", "geometry": {"type": "Point", "coordinates": [9.472836610927093, -0.31403051914762303]}, "properties": {"id": 264, "name": "TRIP12, DOCK7, UBR5", "size": 63, "labelId": "264", "symbolzoom": 5}}, {"type": "Feature", "geometry": {"type": "Point", "coordinates": [11.130966191185292, -0.006768265541908]}, "properties": {"id": 265, "name": "TTC23L, TTC39B, UTP6", "size": 107, "labelId": "265", "symbolzoom": 3}}, {"type": "Feature", "geometry": {"type": "Point", "coordinates": [10.083502218812049, 4.2669435314295265]}, "properties": {"id": 266, "name": "MDFI, RNF222, RNF223", "size": 46, "labelId": "266", "symbolzoom": 6}}, {"type": "Feature", "geometry": {"type": "Point", "coordinates": [12.215664088640445, 1.0760901778192271]}, "properties": {"id": 267, "name": "SPATA20, MVP, PLCZ1", "size": 59, "labelId": "267", "symbolzoom": 6}}, {"type": "Feature", "geometry": {"type": "Point", "coordinates": [10.316552644996484, 0.7483252354986569]}, "properties": {"id": 268, "name": "SREBF1, YTHDC2, SIN3B", "size": 67, "labelId": "268", "symbolzoom": 5}}, {"type": "Feature", "geometry": {"type": "Point", "coordinates": [10.625529640127038, 0.7545025952832449]}, "properties": {"id": 269, "name": "PPEF2, TUBGCP4, AREL1", "size": 35, "labelId": "269", "symbolzoom": 7}}, {"type": "Feature", "geometry": {"type": "Point", "coordinates": [9.640489721461536, 4.328309503358124]}, "properties": {"id": 270, "name": "SAPCD1, CCDC163, FAM209B", "size": 65, "labelId": "270", "symbolzoom": 5}}, {"type": "Feature", "geometry": {"type": "Point", "coordinates": [9.424297813472602, 4.766703739627751]}, "properties": {"id": 271, "name": "SMIM21, C7orf77, TP53TG3F", "size": 74, "labelId": "271", "symbolzoom": 5}}, {"type": "Feature", "geometry": {"type": "Point", "coordinates": [8.715692172277063, 3.9582034326020663]}, "properties": {"id": 272, "name": "SMCO2, CFAP77, THEG", "size": 39, "labelId": "272", "symbolzoom": 7}}, {"type": "Feature", "geometry": {"type": "Point", "coordinates": [8.730702758819646, 4.4826602682484715]}, "properties": {"id": 273, "name": "ODF3, ODF3L2, FAM166A", "size": 24, "labelId": "273", "symbolzoom": 8}}, {"type": "Feature", "geometry": {"type": "Point", "coordinates": [8.747327919535731, 4.2694881107134]}, "properties": {"id": 274, "name": "TEX37, SPATA48, C7orf31", "size": 37, "labelId": "274", "symbolzoom": 7}}, {"type": "Feature", "geometry": {"type": "Point", "coordinates": [8.24981044101371, 1.435803764972227]}, "properties": {"id": 275, "name": "WASF1, EVL, MTFR1", "size": 34, "labelId": "275", "symbolzoom": 7}}, {"type": "Feature", "geometry": {"type": "Point", "coordinates": [10.301110533964449, -0.0852204421789175]}, "properties": {"id": 276, "name": "MED24, RANBP17, FANCA", "size": 48, "labelId": "276", "symbolzoom": 6}}, {"type": "Feature", "geometry": {"type": "Point", "coordinates": [10.246392096064433, 0.425046856024521]}, "properties": {"id": 277, "name": "PPP6R3, EXOC1, EFR3B", "size": 53, "labelId": "277", "symbolzoom": 6}}, {"type": "Feature", "geometry": {"type": "Point", "coordinates": [10.94697065903906, 0.6048024484876635]}, "properties": {"id": 278, "name": "HERC6, HERC3, HERC5", "size": 74, "labelId": "278", "symbolzoom": 5}}, {"type": "Feature", "geometry": {"type": "Point", "coordinates": [10.672526154725361, 0.003944844460295499]}, "properties": {"id": 279, "name": "KPNA6, PPP2R1B, COPG2", "size": 68, "labelId": "279", "symbolzoom": 5}}, {"type": "Feature", "geometry": {"type": "Point", "coordinates": [10.55921799896911, 0.4551502230544665]}, "properties": {"id": 280, "name": "ERMARD, EXOC7, PPP2R5B", "size": 17, "labelId": "280", "symbolzoom": 8}}, {"type": "Feature", "geometry": {"type": "Point", "coordinates": [12.629509663631467, 1.4017685141789744]}, "properties": {"id": 281, "name": "MACROD2, CPOX, ALG14", "size": 54, "labelId": "281", "symbolzoom": 6}}, {"type": "Feature", "geometry": {"type": "Point", "coordinates": [12.259520527984876, 3.4326316733737805]}, "properties": {"id": 282, "name": "UQCRH, SF3B5, SKP1", "size": 75, "labelId": "282", "symbolzoom": 5}}, {"type": "Feature", "geometry": {"type": "Point", "coordinates": [11.965192228733937, 3.432631535201023]}, "properties": {"id": 283, "name": "DYNLRB2, MAGOH, LAMTOR4", "size": 42, "labelId": "283", "symbolzoom": 6}}, {"type": "Feature", "geometry": {"type": "Point", "coordinates": [8.72781215874132, 3.1745672433006855]}, "properties": {"id": 284, "name": "GOLM1, C1orf127, SLC38A10", "size": 26, "labelId": "284", "symbolzoom": 7}}, {"type": "Feature", "geometry": {"type": "Point", "coordinates": [8.30222423312963, 2.070575339630551]}, "properties": {"id": 285, "name": "CCDC15, DAB2, TRIOBP", "size": 61, "labelId": "285", "symbolzoom": 5}}, {"type": "Feature", "geometry": {"type": "Point", "coordinates": [11.798257174425546, 1.2802727764219715]}, "properties": {"id": 286, "name": "TMEM143, NDOR1, FNTB", "size": 28, "labelId": "286", "symbolzoom": 7}}, {"type": "Feature", "geometry": {"type": "Point", "coordinates": [9.533316775420642, 0.6931652963382535]}, "properties": {"id": 287, "name": "SNX5, SNX30, SNX6", "size": 47, "labelId": "287", "symbolzoom": 6}}, {"type": "Feature", "geometry": {"type": "Point", "coordinates": [9.248521711513199, 3.1176381240454765]}, "properties": {"id": 288, "name": "FAM200B, TSC22D4, ZBED5", "size": 108, "labelId": "288", "symbolzoom": 3}}, {"type": "Feature", "geometry": {"type": "Point", "coordinates": [10.927155882946156, 2.640743449696357]}, "properties": {"id": 289, "name": "GID4, FGF2, NUDCD3", "size": 37, "labelId": "289", "symbolzoom": 7}}, {"type": "Feature", "geometry": {"type": "Point", "coordinates": [10.507327670639718, 1.6948952059369446]}, "properties": {"id": 290, "name": "SMG8, USP12, FBXL7", "size": 37, "labelId": "290", "symbolzoom": 7}}, {"type": "Feature", "geometry": {"type": "Point", "coordinates": [10.20983568857892, 1.0830360124136875]}, "properties": {"id": 291, "name": "SEC14L4, SEC14L6, PIP5K1C", "size": 45, "labelId": "291", "symbolzoom": 6}}, {"type": "Feature", "geometry": {"type": "Point", "coordinates": [12.987817396723395, 2.2919132635009287]}, "properties": {"id": 292, "name": "GPX2, METTL26, ACOT13", "size": 38, "labelId": "292", "symbolzoom": 7}}, {"type": "Feature", "geometry": {"type": "Point", "coordinates": [13.160596454297375, 3.312285762443685]}, "properties": {"id": 293, "name": "MRPL22, MRPS10, MRPL47", "size": 84, "labelId": "293", "symbolzoom": 4}}, {"type": "Feature", "geometry": {"type": "Point", "coordinates": [12.675831152607381, 2.6023100147934244]}, "properties": {"id": 294, "name": "COQ3, COMTD1, CCDC51", "size": 40, "labelId": "294", "symbolzoom": 6}}, {"type": "Feature", "geometry": {"type": "Point", "coordinates": [12.9861086928166, 2.945301673159161]}, "properties": {"id": 295, "name": "TMEM223, RBFA, HSCB", "size": 132, "labelId": "295", "symbolzoom": 2}}, {"type": "Feature", "geometry": {"type": "Point", "coordinates": [9.00594737846054, 3.858804224438771]}, "properties": {"id": 296, "name": "FAM228B, CYLC2, C16orf78", "size": 44, "labelId": "296", "symbolzoom": 6}}, {"type": "Feature", "geometry": {"type": "Point", "coordinates": [10.300067499584667, 3.678824478597588]}, "properties": {"id": 297, "name": "MRFAP1L1, HDGF, C1orf115", "size": 35, "labelId": "297", "symbolzoom": 7}}, {"type": "Feature", "geometry": {"type": "Point", "coordinates": [9.112308988115352, 3.3795336626109247]}, "properties": {"id": 298, "name": "MAMSTR, CDC42EP1, FAM53C", "size": 44, "labelId": "298", "symbolzoom": 6}}, {"type": "Feature", "geometry": {"type": "Point", "coordinates": [9.693404356880457, 3.180384080678629]}, "properties": {"id": 299, "name": "POLR2M, MSANTD1, BCL7C", "size": 27, "labelId": "299", "symbolzoom": 7}}, {"type": "Feature", "geometry": {"type": "Point", "coordinates": [9.530269551789061, 3.403603659148631]}, "properties": {"id": 300, "name": "INSYN1, C17orf64, FAM131B", "size": 100, "labelId": "300", "symbolzoom": 3}}, {"type": "Feature", "geometry": {"type": "Point", "coordinates": [10.05124347472742, 3.2034326423814017]}, "properties": {"id": 301, "name": "PNMA2, BCL7A, PNMA8C", "size": 89, "labelId": "301", "symbolzoom": 4}}, {"type": "Feature", "geometry": {"type": "Point", "coordinates": [9.20741790359325, 4.162629764974851]}, "properties": {"id": 302, "name": "POM121L12, C16orf46, PRR20A", "size": 32, "labelId": "302", "symbolzoom": 7}}, {"type": "Feature", "geometry": {"type": "Point", "coordinates": [9.605842985079375, 3.7802483690340036]}, "properties": {"id": 303, "name": "HSPB9, SPATA46, PACRG", "size": 18, "labelId": "303", "symbolzoom": 8}}, {"type": "Feature", "geometry": {"type": "Point", "coordinates": [9.93060137065104, 3.7421539700002864]}, "properties": {"id": 304, "name": "FIBIN, LBH, PRR15L", "size": 92, "labelId": "304", "symbolzoom": 4}}, {"type": "Feature", "geometry": {"type": "Point", "coordinates": [9.313494486845942, 3.780248357628958]}, "properties": {"id": 305, "name": "ENKD1, AKAP5, UBXN10", "size": 41, "labelId": "305", "symbolzoom": 6}}, {"type": "Feature", "geometry": {"type": "Point", "coordinates": [9.487391167561693, 4.194492530765546]}, "properties": {"id": 306, "name": "VXN, CCDC201, TEX35", "size": 39, "labelId": "306", "symbolzoom": 7}}, {"type": "Feature", "geometry": {"type": "Point", "coordinates": [12.187700268074472, 3.0690036720385634]}, "properties": {"id": 307, "name": "COPZ1, SNRNP25, RABIF", "size": 46, "labelId": "307", "symbolzoom": 6}}, {"type": "Feature", "geometry": {"type": "Point", "coordinates": [11.697543264420108, 3.0525144851409847]}, "properties": {"id": 308, "name": "COMMD1, COMMD10, COMMD8", "size": 32, "labelId": "308", "symbolzoom": 7}}, {"type": "Feature", "geometry": {"type": "Point", "coordinates": [8.388132971382008, 2.7011046398805982]}, "properties": {"id": 309, "name": "NELFE, PCARE, KIAA1522", "size": 66, "labelId": "309", "symbolzoom": 5}}, {"type": "Feature", "geometry": {"type": "Point", "coordinates": [8.827326063295335, 2.8433754944556187]}, "properties": {"id": 310, "name": "AJM1, E2F2, ZC3H11A", "size": 46, "labelId": "310", "symbolzoom": 6}}, {"type": "Feature", "geometry": {"type": "Point", "coordinates": [10.73697347227931, 1.2745178444176775]}, "properties": {"id": 311, "name": "EHD3, PDP1, STK31", "size": 33, "labelId": "311", "symbolzoom": 7}}, {"type": "Feature", "geometry": {"type": "Point", "coordinates": [10.547820766441157, 1.1832512290654496]}, "properties": {"id": 312, "name": "MOB2, HPS1, PI4KB", "size": 26, "labelId": "312", "symbolzoom": 7}}, {"type": "Feature", "geometry": {"type": "Point", "coordinates": [10.296502490155838, 1.4843653882191994]}, "properties": {"id": 313, "name": "CDC14B, INTS6, C12orf56", "size": 30, "labelId": "313", "symbolzoom": 7}}, {"type": "Feature", "geometry": {"type": "Point", "coordinates": [9.448145800670254, 2.6760770087385843]}, "properties": {"id": 314, "name": "PDLIM5, PDLIM2, SAMD14", "size": 39, "labelId": "314", "symbolzoom": 7}}, {"type": "Feature", "geometry": {"type": "Point", "coordinates": [11.741241065112382, 2.6889818474859712]}, "properties": {"id": 315, "name": "C10orf53, EXOC1L, EXOSC9", "size": 20, "labelId": "315", "symbolzoom": 8}}, {"type": "Feature", "geometry": {"type": "Point", "coordinates": [9.002699888296043, 1.519911610384872]}, "properties": {"id": 316, "name": "STIM2, MTMR3, FNIP1", "size": 30, "labelId": "316", "symbolzoom": 7}}, {"type": "Feature", "geometry": {"type": "Point", "coordinates": [10.964016788267468, 1.4218274163902664]}, "properties": {"id": 317, "name": "CNOT6L, TDRD7, C9orf72", "size": 37, "labelId": "317", "symbolzoom": 7}}, {"type": "Feature", "geometry": {"type": "Point", "coordinates": [11.125668580585433, 2.1306074795714327]}, "properties": {"id": 318, "name": "GTF2H2C, DOHH, CDADC1", "size": 36, "labelId": "318", "symbolzoom": 7}}, {"type": "Feature", "geometry": {"type": "Point", "coordinates": [11.1225942170425, 2.421735716497572]}, "properties": {"id": 319, "name": "ERCC1, TIPRL, EIF3F", "size": 43, "labelId": "319", "symbolzoom": 6}}, {"type": "Feature", "geometry": {"type": "Point", "coordinates": [9.744040226781811, 2.299922465833375]}, "properties": {"id": 320, "name": "PPM1D, NFATC2IP, CEP44", "size": 44, "labelId": "320", "symbolzoom": 6}}, {"type": "Feature", "geometry": {"type": "Point", "coordinates": [11.519609357057167, 2.549248601190156]}, "properties": {"id": 321, "name": "ARHGDIB, TSNAX, DDX51", "size": 32, "labelId": "321", "symbolzoom": 7}}, {"type": "Feature", "geometry": {"type": "Point", "coordinates": [11.474885758275585, 2.272373997919383]}, "properties": {"id": 322, "name": "RO60, CLIC1, FAXC", "size": 75, "labelId": "322", "symbolzoom": 5}}, {"type": "Feature", "geometry": {"type": "Point", "coordinates": [10.367377732869262, 1.9951398701141256]}, "properties": {"id": 323, "name": "PRR5, ADARB2, SMYD2", "size": 57, "labelId": "323", "symbolzoom": 6}}, {"type": "Feature", "geometry": {"type": "Point", "coordinates": [8.737465026373911, 1.6633731622584436]}, "properties": {"id": 324, "name": "SYTL2, TASOR, PLEKHG2", "size": 82, "labelId": "324", "symbolzoom": 4}}, {"type": "Feature", "geometry": {"type": "Point", "coordinates": [8.526961817532705, 1.5711802953313696]}, "properties": {"id": 325, "name": "APBB1IP, ARHGAP32, RAB44", "size": 17, "labelId": "325", "symbolzoom": 8}}, {"type": "Feature", "geometry": {"type": "Point", "coordinates": [9.856558612091533, 0.4903213809048335]}, "properties": {"id": 326, "name": "PNPLA6, SYTL1, DIP2A", "size": 29, "labelId": "326", "symbolzoom": 7}}, {"type": "Feature", "geometry": {"type": "Point", "coordinates": [8.67118791661671, 1.2153182476670956]}, "properties": {"id": 327, "name": "MAST1, TNK2, ERICH6B", "size": 61, "labelId": "327", "symbolzoom": 5}}, {"type": "Feature", "geometry": {"type": "Point", "coordinates": [8.85512969033469, 0.8424505248098475]}, "properties": {"id": 328, "name": "WWC2, EHBP1, TJP2", "size": 77, "labelId": "328", "symbolzoom": 5}}, {"type": "Feature", "geometry": {"type": "Point", "coordinates": [12.033688133613037, 2.6629232020410964]}, "properties": {"id": 329, "name": "EXOSC3, CYB5A, CYB5B", "size": 30, "labelId": "329", "symbolzoom": 7}}, {"type": "Feature", "geometry": {"type": "Point", "coordinates": [11.830772462399512, 2.452290086118651]}, "properties": {"id": 330, "name": "ADO, RANGRF, DUSP3", "size": 48, "labelId": "330", "symbolzoom": 6}}, {"type": "Feature", "geometry": {"type": "Point", "coordinates": [9.204485660358465, 0.4453305339503985]}, "properties": {"id": 331, "name": "PACSIN2, SH3GL3, PACSIN1", "size": 30, "labelId": "331", "symbolzoom": 7}}, {"type": "Feature", "geometry": {"type": "Point", "coordinates": [10.866162716410457, 1.6913204640363961]}, "properties": {"id": 332, "name": "TYW1B, TDRKH, CHD1L", "size": 58, "labelId": "332", "symbolzoom": 6}}, {"type": "Feature", "geometry": {"type": "Point", "coordinates": [9.053466359299652, 1.1253883713559651]}, "properties": {"id": 333, "name": "TSC1, RALGDS, ARVCF", "size": 15, "labelId": "333", "symbolzoom": 8}}, {"type": "Feature", "geometry": {"type": "Point", "coordinates": [9.205017927819398, 0.8290812207959255]}, "properties": {"id": 334, "name": "ENOX1, IQSEC1, SNX29", "size": 84, "labelId": "334", "symbolzoom": 4}}, {"type": "Feature", "geometry": {"type": "Point", "coordinates": [11.19422531926671, 2.721515618556099]}, "properties": {"id": 335, "name": "PSME3, SF3A3, GINS2", "size": 25, "labelId": "335", "symbolzoom": 7}}, {"type": "Feature", "geometry": {"type": "Point", "coordinates": [9.034436880471578, 1.7942001099675466]}, "properties": {"id": 336, "name": "GAS2L3, SCEL, SYCP2", "size": 35, "labelId": "336", "symbolzoom": 7}}, {"type": "Feature", "geometry": {"type": "Point", "coordinates": [10.369960378036321, 3.2034326517568474]}, "properties": {"id": 337, "name": "BAX, CTU1, BOK", "size": 56, "labelId": "337", "symbolzoom": 6}}, {"type": "Feature", "geometry": {"type": "Point", "coordinates": [10.12524927510293, 1.697999941449082]}, "properties": {"id": 338, "name": "TULP2, RHOBTB1, TAX1BP3", "size": 57, "labelId": "338", "symbolzoom": 6}}, {"type": "Feature", "geometry": {"type": "Point", "coordinates": [9.563418105611401, 1.5790229599230605]}, "properties": {"id": 339, "name": "TSNARE1, CEP104, USP21", "size": 32, "labelId": "339", "symbolzoom": 7}}, {"type": "Feature", "geometry": {"type": "Point", "coordinates": [9.196134075173173, 2.5886856397163456]}, "properties": {"id": 340, "name": "TMPO, RAD21, TRAF3IP1", "size": 36, "labelId": "340", "symbolzoom": 7}}, {"type": "Feature", "geometry": {"type": "Point", "coordinates": [11.844226127008884, 1.609075863354863]}, "properties": {"id": 341, "name": "C2orf69, IPPK, BBS12", "size": 24, "labelId": "341", "symbolzoom": 8}}, {"type": "Feature", "geometry": {"type": "Point", "coordinates": [10.990551971573346, 1.0391718725572736]}, "properties": {"id": 342, "name": "IFRD2, AIM2, MORN1", "size": 50, "labelId": "342", "symbolzoom": 6}}, {"type": "Feature", "geometry": {"type": "Point", "coordinates": [13.626877766461801, 2.3882738766588365]}, "properties": {"id": 343, "name": "ACAT1, DECR1, TKT", "size": 136, "labelId": "343", "symbolzoom": 2}}, {"type": "Feature", "geometry": {"type": "Point", "coordinates": [11.413409472614038, 2.8138507631924585]}, "properties": {"id": 344, "name": "EIF4E3, RRP8, GADD45B", "size": 36, "labelId": "344", "symbolzoom": 7}}, {"type": "Feature", "geometry": {"type": "Point", "coordinates": [11.334697046233913, 0.884430916119878]}, "properties": {"id": 345, "name": "MCMDC2, PPP1CA, SKIV2L", "size": 56, "labelId": "345", "symbolzoom": 6}}, {"type": "Feature", "geometry": {"type": "Point", "coordinates": [10.638888981840577, 2.5673128053738807]}, "properties": {"id": 346, "name": "ANKRD60, LIX1L, UNC119", "size": 30, "labelId": "346", "symbolzoom": 7}}, {"type": "Feature", "geometry": {"type": "Point", "coordinates": [11.131445943849762, 3.380415049516934]}, "properties": {"id": 347, "name": "TINCR, MED10, LTV1", "size": 33, "labelId": "347", "symbolzoom": 7}}, {"type": "Feature", "geometry": {"type": "Point", "coordinates": [10.04141286318672, 2.0005936949726175]}, "properties": {"id": 348, "name": "MAPRE2, STAU1, SAMD3", "size": 52, "labelId": "348", "symbolzoom": 6}}, {"type": "Feature", "geometry": {"type": "Point", "coordinates": [9.447317067735103, 1.8713069023038988]}, "properties": {"id": 349, "name": "JMY, SHD, RPS6KL1", "size": 50, "labelId": "349", "symbolzoom": 6}}, {"type": "Feature", "geometry": {"type": "Point", "coordinates": [9.556157901911156, 2.200956751723383]}, "properties": {"id": 350, "name": "PARP1, EXD1, UHRF1", "size": 21, "labelId": "350", "symbolzoom": 8}}, {"type": "Feature", "geometry": {"type": "Point", "coordinates": [10.751638082617156, 2.021231883235931]}, "properties": {"id": 351, "name": "ARHGAP11B, TOMM34, HSF2BP", "size": 46, "labelId": "351", "symbolzoom": 6}}, {"type": "Feature", "geometry": {"type": "Point", "coordinates": [9.255582514786425, 1.4022372140946109]}, "properties": {"id": 352, "name": "POC5, SPATA1, PSD4", "size": 23, "labelId": "352", "symbolzoom": 8}}, {"type": "Feature", "geometry": {"type": "Point", "coordinates": [9.4654340701467, 1.308359001085614]}, "properties": {"id": 353, "name": "PHLPP2, RPH3AL, RASIP1", "size": 27, "labelId": "353", "symbolzoom": 7}}, {"type": "Feature", "geometry": {"type": "Point", "coordinates": [9.368382838074712, 1.0939503668234178]}, "properties": {"id": 354, "name": "GPSM1, RIPOR3, SH3BP5L", "size": 20, "labelId": "354", "symbolzoom": 8}}, {"type": "Feature", "geometry": {"type": "Point", "coordinates": [10.661449268021293, 2.308304700760159]}, "properties": {"id": 355, "name": "CCNG2, CCNI2, MINDY1", "size": 117, "labelId": "355", "symbolzoom": 3}}, {"type": "Feature", "geometry": {"type": "Point", "coordinates": [9.797561516373507, 2.040786928439336]}, "properties": {"id": 356, "name": "ADAR, TUT1, ANKRD33B", "size": 22, "labelId": "356", "symbolzoom": 8}}, {"type": "Feature", "geometry": {"type": "Point", "coordinates": [11.159413413511299, 1.8411251609675026]}, "properties": {"id": 357, "name": "FBXO15, MIF4GD, SMYD4", "size": 45, "labelId": "357", "symbolzoom": 6}}, {"type": "Feature", "geometry": {"type": "Point", "coordinates": [11.32108871277806, 3.0525144591558875]}, "properties": {"id": 358, "name": "SRP19, DDX27, UTP23", "size": 26, "labelId": "358", "symbolzoom": 7}}, {"type": "Feature", "geometry": {"type": "Point", "coordinates": [11.390073276548803, 3.3973618034339834]}, "properties": {"id": 359, "name": "GPATCH4, EBNA1BP2, RBM34", "size": 50, "labelId": "359", "symbolzoom": 6}}, {"type": "Feature", "geometry": {"type": "Point", "coordinates": [9.798638882946255, 1.6176067069258204]}, "properties": {"id": 360, "name": "TOM1, HLTF, SH2D2A", "size": 51, "labelId": "360", "symbolzoom": 6}}, {"type": "Feature", "geometry": {"type": "Point", "coordinates": [10.067450796822724, 1.3420313233483299]}, "properties": {"id": 361, "name": "SBNO1, DLG4, PPIP5K1", "size": 18, "labelId": "361", "symbolzoom": 8}}, {"type": "Feature", "geometry": {"type": "Point", "coordinates": [9.924346555218479, 0.7483252558944815]}, "properties": {"id": 362, "name": "ELMO3, ALS2CL, ZSWIM5", "size": 79, "labelId": "362", "symbolzoom": 5}}, {"type": "Feature", "geometry": {"type": "Point", "coordinates": [9.761422303872155, 1.2368189387443596]}, "properties": {"id": 363, "name": "OSBPL1A, OSBPL9, ARHGAP40", "size": 200, "labelId": "363", "symbolzoom": 2}}, {"type": "Feature", "geometry": {"type": "Point", "coordinates": [9.24620833492046, 2.1762710927440905]}, "properties": {"id": 364, "name": "SPATA2L, EXO1, EHMT1", "size": 178, "labelId": "364", "symbolzoom": 2}}, {"type": "Feature", "geometry": {"type": "Point", "coordinates": [8.88950510989006, 2.5506387047800194]}, "properties": {"id": 365, "name": "TTK, TICAM1, KIF22", "size": 52, "labelId": "365", "symbolzoom": 6}}, {"type": "Feature", "geometry": {"type": "Point", "coordinates": [12.200022384679276, 1.8221551960273485]}, "properties": {"id": 366, "name": "GYG1, NUDT12, ALKBH3", "size": 42, "labelId": "366", "symbolzoom": 6}}, {"type": "Feature", "geometry": {"type": "Point", "coordinates": [8.935550403840214, 2.1046217998186565]}, "properties": {"id": 367, "name": "KANSL3, RUSC2, JARID2", "size": 21, "labelId": "367", "symbolzoom": 8}}, {"type": "Feature", "geometry": {"type": "Point", "coordinates": [8.62024939332375, 2.1011404880953046]}, "properties": {"id": 368, "name": "ZGRF1, RBM44, SHLD2", "size": 122, "labelId": "368", "symbolzoom": 2}}, {"type": "Feature", "geometry": {"type": "Point", "coordinates": [11.02273406507112, 3.038157770262517]}, "properties": {"id": 369, "name": "PRPF18, MED6, FKBPL", "size": 54, "labelId": "369", "symbolzoom": 6}}, {"type": "Feature", "geometry": {"type": "Point", "coordinates": [12.377811025397031, 1.6886733396338225]}, "properties": {"id": 370, "name": "FARS2, GLYATL2, ADCK2", "size": 26, "labelId": "370", "symbolzoom": 7}}, {"type": "Feature", "geometry": {"type": "Point", "coordinates": [10.850962586615813, 3.0654499708280825]}, "properties": {"id": 371, "name": "BLOC1S6, KXD1, TAF11", "size": 15, "labelId": "371", "symbolzoom": 8}}, {"type": "Feature", "geometry": {"type": "Point", "coordinates": [10.805622036085566, 3.319302527364601]}, "properties": {"id": 372, "name": "CLTA, SLU7, UBXN1", "size": 62, "labelId": "372", "symbolzoom": 5}}, {"type": "Feature", "geometry": {"type": "Point", "coordinates": [10.638452449272057, 3.0848419171520263]}, "properties": {"id": 373, "name": "MED29, CWF19L2, CD2BP2", "size": 32, "labelId": "373", "symbolzoom": 7}}, {"type": "Feature", "geometry": {"type": "Point", "coordinates": [10.243602740360014, 2.843287529405062]}, "properties": {"id": 374, "name": "MBD2, MLF2, MRGBP", "size": 62, "labelId": "374", "symbolzoom": 5}}, {"type": "Feature", "geometry": {"type": "Point", "coordinates": [10.63764653268701, 2.8648730446267683]}, "properties": {"id": 375, "name": "SRXN1, RTF2, SPATA24", "size": 57, "labelId": "375", "symbolzoom": 6}}, {"type": "Feature", "geometry": {"type": "Point", "coordinates": [10.253619592148318, 2.3143716956457214]}, "properties": {"id": 376, "name": "RNF14, BLZF1, BRAP", "size": 21, "labelId": "376", "symbolzoom": 8}}, {"type": "Feature", "geometry": {"type": "Point", "coordinates": [10.364218695438517, 2.537891249018082]}, "properties": {"id": 377, "name": "UBE2Z, NAA30, DTNBP1", "size": 22, "labelId": "377", "symbolzoom": 8}}, {"type": "Feature", "geometry": {"type": "Point", "coordinates": [9.681747471922879, 2.661032019562337]}, "properties": {"id": 378, "name": "CSRP1, CRIP1, CDT1", "size": 33, "labelId": "378", "symbolzoom": 7}}, {"type": "Feature", "geometry": {"type": "Point", "coordinates": [13.465620590122562, 1.6167246989612392]}, "properties": {"id": 379, "name": "ACOXL, HKDC1, NQO1", "size": 138, "labelId": "379", "symbolzoom": 2}}, {"type": "Feature", "geometry": {"type": "Point", "coordinates": [13.074834366969151, 1.740300513066632]}, "properties": {"id": 380, "name": "GALE, THNSL2, BPNT1", "size": 206, "labelId": "380", "symbolzoom": 2}}, {"type": "Feature", "geometry": {"type": "Point", "coordinates": [10.068845799833436, 2.467826493714543]}, "properties": {"id": 381, "name": "ARFGAP1, XAF1, RNF138", "size": 69, "labelId": "381", "symbolzoom": 5}}, {"type": "Feature", "geometry": {"type": "Point", "coordinates": [9.881932477448093, 2.801580706305383]}, "properties": {"id": 382, "name": "GRXCR2, ING4, ING5", "size": 73, "labelId": "382", "symbolzoom": 5}}, {"type": "Feature", "geometry": {"type": "Point", "coordinates": [11.184305594571613, 1.4669559890566641]}, "properties": {"id": 383, "name": "SMARCAL1, PARN, PARP2", "size": 28, "labelId": "383", "symbolzoom": 7}}, {"type": "Feature", "geometry": {"type": "Point", "coordinates": [11.868304817645335, 2.1013524525501204]}, "properties": {"id": 384, "name": "SNUPN, FBXO44, METTL8", "size": 62, "labelId": "384", "symbolzoom": 5}}, {"type": "Feature", "geometry": {"type": "Point", "coordinates": [12.097916683892276, 1.561695690868295]}, "properties": {"id": 385, "name": "RCC1, RCCD1, PARS2", "size": 149, "labelId": "385", "symbolzoom": 2}}, {"type": "Feature", "geometry": {"type": "Point", "coordinates": [11.415252807179954, 1.273141869165792]}, "properties": {"id": 386, "name": "ATAD1, FASTKD2, SPATA5", "size": 25, "labelId": "386", "symbolzoom": 7}}, {"type": "Feature", "geometry": {"type": "Point", "coordinates": [11.428056575230006, 1.597330159014919]}, "properties": {"id": 387, "name": "NAT10, PNLDC1, BABAM2", "size": 65, "labelId": "387", "symbolzoom": 5}}, {"type": "Feature", "geometry": {"type": "Point", "coordinates": [12.70401081738627, 1.7138045423189698]}, "properties": {"id": 388, "name": "NAXD, MGLL, FN3K", "size": 28, "labelId": "388", "symbolzoom": 7}}, {"type": "Feature", "geometry": {"type": "Point", "coordinates": [11.636091998067156, 1.6068766258061449]}, "properties": {"id": 389, "name": "VCP, PSMC1, MCM5", "size": 23, "labelId": "389", "symbolzoom": 8}}, {"type": "Feature", "geometry": {"type": "Point", "coordinates": [11.4572747786397, 1.8508873333837705]}, "properties": {"id": 390, "name": "PDE12, ABCF2, TRMT13", "size": 76, "labelId": "390", "symbolzoom": 5}}, {"type": "Feature", "geometry": {"type": "Point", "coordinates": [11.718081462590913, 1.8133029310529234]}, "properties": {"id": 391, "name": "BLMH, THNSL1, TSEN54", "size": 22, "labelId": "391", "symbolzoom": 8}}, {"type": "Feature", "geometry": {"type": "Point", "coordinates": [12.433151935628544, 2.4748904214643987]}, "properties": {"id": 392, "name": "MRM2, METTL17, MRPS30", "size": 35, "labelId": "392", "symbolzoom": 7}}, {"type": "Feature", "geometry": {"type": "Point", "coordinates": [12.157515522272977, 2.418086200956814]}, "properties": {"id": 393, "name": "NUDT16L1, STARD5, MDP1", "size": 91, "labelId": "393", "symbolzoom": 4}}, {"type": "Feature", "geometry": {"type": "Point", "coordinates": [12.745275288803038, 2.052509891836938]}, "properties": {"id": 394, "name": "LHPP, PPCDC, PRPSAP2", "size": 18, "labelId": "394", "symbolzoom": 8}}, {"type": "Feature", "geometry": {"type": "Point", "coordinates": [12.270339240787647, 2.1475493596934747]}, "properties": {"id": 395, "name": "GATD1, NT5C1A, ALLC", "size": 75, "labelId": "395", "symbolzoom": 5}}, {"type": "Feature", "geometry": {"type": "Point", "coordinates": [12.527138693396621, 2.0890362250241825]}, "properties": {"id": 396, "name": "PMM1, L3HYPDH, BLVRA", "size": 65, "labelId": "396", "symbolzoom": 5}}]}